Full Address,Name,Latitude,Longitude
"1 West 126th Street,Manhattan, New York ","1 West 126th Street , Manhattan,  New York ",40.8073916,-73.9420052
"10 St Nicholas Terrace ,Manhattan,  New York ","10 St Nicholas Terrace , Manhattan,  New York ",40.8127317,-73.9516822
"10-12 West 107 Street ,Manhattan,  New York ","10-12 West 107 Street , Manhattan,  New York ",40.7989797,-73.9603662
"10-12 West 93 Street ,Manhattan,  New York ","10-12 West 93 Street , Manhattan,  New York ",40.789909,-73.967099
"100 St Nicholas Avenue ,Manhattan,  New York ","100 St Nicholas Avenue , Manhattan,  New York ",40.8024149,-73.9522824
"100 West 121 Street ,Manhattan,  New York ","100 West 121 Street , Manhattan,  New York ",40.8052883,-73.9478167
"100 West 142 Street ,Manhattan,  New York ","100 West 142 Street , Manhattan,  New York ",40.8185834,-73.938103
"100 West 162 Street, Bronx,  New York ","100 West 162 Street , Bronx,  New York ",40.8314298,-73.929897
"100 West 88 St ,Manhattan,  New York ","100 West 88 St , Manhattan,  New York ",40.7878578,-73.9716115
"100-106 West 141st Street ,Manhattan,  New York ","100-106 West 141st Street , Manhattan,  New York ",40.817882,-73.938644
"100-18 Northern Blvd , Queens,  New York ",100-18 Northern Blvd  Queens New York ,40.7571269,-73.867625
"1000 Decatur St , Brooklyn, ,  New York ","1000 Decatur St , Brooklyn,  New York ",40.6847299,-73.9112338
"1001 Anderson Avenue, Bronx,  New York ","1001 Anderson Avenue , Bronx,  New York ",40.8323919,-73.9273711
"1001 Progressive , Brooklyn, ,  New York ","1001 Progressive , Brooklyn,  New York ",40.6145808,-73.9945944
"1003-5 East 174 Street, Bronx,  New York ","1003-5 East 174 Street , Bronx,  New York ",40.8340854,-73.8762595
"1005 Putnam Ave, Bronx,  New York ","1005 Putnam Ave , Bronx,  New York ",40.883816,-73.8994671
"1007-9 East 174 St, Bronx,  New York ","1007-9 East 174 St , Bronx,  New York ",40.8361596,-73.8834978
"101 Linden St , Brooklyn, ,  New York ","101 Linden St , Brooklyn,  New York ",40.6929211,-73.9201591
"101-09 West 115 St ,Manhattan,  New York ","101-09 West 115 St , Manhattan,  New York ",40.8016173,-73.9504006
"1012 Longfellow Avenue, Bronx,  New York ","1012 Longfellow Avenue , Bronx,  New York ",40.8235941,-73.8884611
"1015 Anderson Avenue, Bronx,  New York ","1015 Anderson Avenue , Bronx,  New York ",40.8325809,-73.9272104
"1015 Longwood Avenue, Bronx,  New York ","1015 Longwood Avenue , Bronx,  New York ",40.8168624,-73.8965702
"1015 Summit Ave, Bronx,  New York ","1015 Summit Ave , Bronx,  New York ",40.833776,-73.9301395
"1019 Longwood Ave, Bronx,  New York ","1019 Longwood Ave , Bronx,  New York ",40.8167078,-73.8965455
"102 Avenue B Homesteaders ,Manhattan,  New York ","102 Avenue B Homesteaders , Manhattan,  New York ",40.7248592,-73.9816084
"102-04 Front Street , Brooklyn, ,  New York ","102-04 Front Street , Brooklyn,  New York ",40.7023872,-73.9888109
"1020 Tiffany Street, Bronx,  New York ","1020 Tiffany Street , Bronx,  New York ",40.8241418,-73.8946688
"1021-7 Avenue St John, Bronx,  New York ","1021-7 Avenue St John , Bronx,  New York ",40.8133239,-73.9013455
"1025-1027 Leggett Avenue, Bronx,  New York ","1025-1027 Leggett Avenue , Bronx,  New York ",40.813893,-73.8992449
"103 Clinton St ,Manhattan,  New York ","103 Clinton St , Manhattan,  New York ",40.7182943,-73.9857601
"103 East 97 St ,Manhattan,  New York ","103 East 97 St , Manhattan,  New York ",40.787163,-73.9513657
"103-09 West 88 St ,Manhattan,  New York ","103-09 West 88 St , Manhattan,  New York ",40.7881894,-73.9715817
"1031,Manhattan,  Avenue , Brooklyn, ,  New York ","1031, Manhattan,  Avenue , Brooklyn,  New York ",40.7341181,-73.9551443
"1031 Pacific Street , Brooklyn, ,  New York ","1031 Pacific Street , Brooklyn,  New York ",40.6794058,-73.959471
"1033 Cauldwell Ave, Bronx,  New York ","1033 Cauldwell Ave , Bronx,  New York ",40.8259814,-73.9059893
"1036 Manor Ave, Bronx,  New York ","1036 Manor Ave , Bronx,  New York ",40.8252423,-73.8752679
"104 Division Avenue , Brooklyn, ,  New York ","104 Division Avenue , Brooklyn,  New York ",40.7073273,-73.9636078
"104 East Harlem ,Manhattan,  New York ","104 East Harlem , Manhattan,  New York ",40.8115504,-73.9464769
"104-05 37 Drive , Queens,  New York ",104-05 37 Drive  Queens New York ,40.7524602,-73.862776
"1040 Carroll Street , Brooklyn, ,  New York ","1040 Carroll Street , Brooklyn,  New York ",40.6673589,-73.9566261
"1045 Anderson Avenue, Bronx,  New York ","1045 Anderson Avenue , Bronx,  New York ",40.833399,-73.926629
"1046 Amsterdam Ave ,Manhattan,  New York ","1046 Amsterdam Ave , Manhattan,  New York ",40.8040273,-73.9634849
"1049 Fox Street, Bronx,  New York ","1049 Fox Street , Bronx,  New York ",40.8251246,-73.8941497
"105 East 97 Street ,Manhattan,  New York ","105 East 97 Street , Manhattan,  New York ",40.7871356,-73.9512858
"105-07 East 116 St ,Manhattan,  New York ","105-07 East 116 St , Manhattan,  New York ",40.7992256,-73.9425492
"1050 Hancock St , Brooklyn, ,  New York ","1050 Hancock St , Brooklyn,  New York ",40.6882437,-73.9147715
"1052 Prospect Avenue, Bronx,  New York ","1052 Prospect Avenue , Bronx,  New York ",40.8249577,-73.8990325
"1055 Bergen St , Brooklyn, ,  New York ","1055 Bergen St , Brooklyn,  New York ",40.676406,-73.9514839
"1057 Eastern Pkwy , Brooklyn, ,  New York ","1057 Eastern Pkwy , Brooklyn,  New York ",40.6694067,-73.9332423
"1059 Bedford Avenue , Brooklyn, ,  New York ","1059 Bedford Avenue , Brooklyn,  New York ",40.6876541,-73.9544709
"105th Street Homesteaders ,Manhattan,  New York ","105th Street Homesteaders , Manhattan,  New York ",40.7995932,-73.9657938
"106-01 37 Ave Homesteaders , Queens,  New York ",106-01 37 Ave Homesteaders  Queens New York ,40.7541054,-73.8620142
"1069 Teller Avenue, Bronx,  New York ","1069 Teller Avenue , Bronx,  New York ",40.8293024,-73.9136133
"107 Bleecker St , Brooklyn, ,  New York ","107 Bleecker St , Brooklyn,  New York ",40.6953713,-73.9212525
"1076 Eastern Parkway , Brooklyn, ,  New York ","1076 Eastern Parkway , Brooklyn,  New York ",40.6684049,-73.9327717
"108 Division Avenue , Brooklyn, ,  New York ","108 Division Avenue , Brooklyn,  New York ",40.7074624,-73.9635046
"108 Meserole Street , Brooklyn, ,  New York ","108 Meserole Street , Brooklyn,  New York ",40.7076887,-73.9455855
"108 Seigel Street , Brooklyn, ,  New York ","108 Seigel Street , Brooklyn,  New York ",40.704352,-73.9420915
"108 West 114 St ,Manhattan,   New York ","108 West 114 St , Manhattan,   New York ",40.8008731,-73.9515108
"108-110 West 95 St ,Manhattan,   New York ","108-110 West 95 St , Manhattan,   New York ",40.792297,-73.968861
"1082 Southern Blvd, Bronx,  New York ","1082 Southern Blvd , Bronx,  New York ",40.8257421,-73.8917209
"1087 Bushwick Ave , Brooklyn, ,  New York ","1087 Bushwick Ave , Brooklyn,  New York ",40.690482,-73.9192956
"109 West 111th Street ,Manhattan,  New York ","109 West 111th Street , Manhattan,  New York ",40.7992895,-73.952792
"1091 Bushwick Ave , Brooklyn, ,  New York ","1091 Bushwick Ave , Brooklyn,  New York ",40.690396,-73.9191597
"1095 Bushwick Ave , Brooklyn, ,  New York ","1095 Bushwick Ave , Brooklyn,  New York ",40.6903764,-73.9190219
"1096 West Farms Road, Bronx,  New York ","1096 West Farms Road , Bronx,  New York ",40.8261119,-73.8902722
"11-15 St Nicholas Ave ,Manhattan,  New York ","11-15 St Nicholas Ave , Manhattan,  New York ",40.8395094,-73.9401023
"11-15 West 108 St ,Manhattan,  New York ","11-15 West 108 St , Manhattan,  New York ",40.799874,-73.9597725
"110 Forsyth Street ,Manhattan,  New York ","110 Forsyth Street , Manhattan,  New York ",40.7189562,-73.992346
"110 Madison Avenue ,Manhattan,  New York ","110 Madison Avenue , Manhattan,  New York ",40.7450165,-73.9851465
"1100-04 Elder Ave, Bronx,  New York ","1100-04 Elder Ave , Bronx,  New York ",40.82636,-73.8785016
"1102 Simpson St, Bronx,  New York ","1102 Simpson St , Bronx,  New York ",40.8261322,-73.8926844
"1103 Franklin Avenue, Bronx,  New York ","1103 Franklin Avenue , Bronx,  New York ",40.8278416,-73.9066049
"1104 Clay Ave, Bronx,  New York ","1104 Clay Ave , Bronx,  New York ",40.8296615,-73.9118897
"111 South 3 St , Brooklyn, ,  New York ","111 South 3 St , Brooklyn,  New York ",40.7129369,-73.9630067
"111 West 106th Street ,Manhattan,  New York ","111 West 106th Street , Manhattan,  New York ",40.7997483,-73.9633817
"1111 Southern Blvd, Bronx,   New York ","1111 Southern Blvd , Bronx,   New York ",40.8264305,-73.8922113
"1113-17 Grant Avenue, Bronx,  New York ","1113-17 Grant Avenue , Bronx,  New York ",40.8311874,-73.9167618
"1115 Dorchester Road , Brooklyn, ,  New York ","1115 Dorchester Road , Brooklyn,  New York ",40.638175,-73.9668927
"1116 Hoe Avenue, Bronx,  New York ","1116 Hoe Avenue , Bronx,  New York ",40.8265423,-73.8906363
"112 Bedford Avenue , Brooklyn, ,  New York ","112 Bedford Avenue , Brooklyn,  New York ",40.7200156,-73.9556758
"112-14 East 98 Street ,Manhattan,  New York ","112-14 East 98 Street , Manhattan,  New York ",40.7886715,-73.953936
"1120 College Ave, Bronx,  New York ","1120 College Ave , Bronx,  New York ",40.8307183,-73.9143402
"1125 Sterling Place , Brooklyn, ,  New York ","1125 Sterling Place , Brooklyn,  New York ",40.672287,-73.9413059
"114 Suffolk St ,Manhattan,  New York ","114 Suffolk St , Manhattan,  New York ",40.7188708,-73.9859354
"115 Linden St , Brooklyn, ,  New York ","115 Linden St , Brooklyn,  New York ",40.6933318,-73.9197979
"115-17 South 8 Street , Brooklyn, ,  New York ","115-17 South 8 Street , Brooklyn,  New York ",40.7097731,-73.9644153
"1151 Vyse Avenue, Bronx,  New York ","1151 Vyse Avenue , Bronx,  New York ",40.8277529,-73.8901732
"1152 Pacific Street , Brooklyn, ,  New York ","1152 Pacific Street , Brooklyn,  New York ",40.6778478,-73.9540751
"1155 Hoe Ave, Bronx,  New York ","1155 Hoe Ave , Bronx,  New York ",40.8276438,-73.8911629
"1158 Dekalb Avenue , Brooklyn, ,  New York ","1158 Dekalb Avenue , Brooklyn,  New York ",40.6946978,-73.928566
"116-20 Grove Street , Brooklyn, ,  New York ","116-20 Grove Street , Brooklyn,  New York ",40.6934314,-73.9202347
"1160 Colgate Avenue, Bronx,  New York ","1160 Colgate Avenue , Bronx,  New York ",40.8279115,-73.8816049
"1160 President Street , Brooklyn, ,  New York ","1160 President Street , Brooklyn,  New York ",40.6678195,-73.9520591
"1165 Fulton Avenue, Bronx,  New York ","1165 Fulton Avenue , Bronx,  New York ",40.8295051,-73.9056443
"117 East 101 St ,Manhattan,  New York ","117 East 101 St , Manhattan,  New York ",40.7896393,-73.9494504
"117-119 Grand Street , Brooklyn, ,  New York ","117-119 Grand Street , Brooklyn,  New York ",40.7154019,-73.9629608
"1175-77-85 Anderson Ave, Bronx,  New York ","1175-77-85 Anderson Ave , Bronx,  New York ",40.8363462,-73.9244089
"1185 Fulton Ave, Bronx,  New York ","1185 Fulton Ave , Bronx,  New York ",40.8299282,-73.9053688
"1185-9 Putnam Avenue , Brooklyn, ,  New York ","1185-9 Putnam Avenue , Brooklyn,  New York ",40.6905998,-73.9164372
"12 Bleecker Street , Brooklyn, ,  New York ","12 Bleecker Street , Brooklyn,  New York ",40.6928668,-73.9232721
"12 St. Marks Place , Brooklyn, ,  New York ","12 St. Marks Place , Brooklyn,  New York ",40.6824922,-73.9821503
"120 Bergen Street , Brooklyn, ,  New York ","120 Bergen Street , Brooklyn,  New York ",40.6860535,-73.9892126
"120-2 East 107 St Homesteaders ,Manhattan,  New York ","120-2 East 107 St Homesteaders , Manhattan,  New York ",40.7930868,-73.9465688
"1200 Woodycrest Ave, Bronx,  New York ","1200 Woodycrest Ave , Bronx,  New York ",40.8367163,-73.9245878
"1201 Shakespeare Avenue, Bronx,  New York ","1201 Shakespeare Avenue , Bronx,  New York ",40.8366149,-73.9235612
"121 East 101 St ,Manhattan,  New York ","121 East 101 St , Manhattan,  New York ",40.7895677,-73.9492912
"1211 Washington Avenue, Bronx,  New York ","1211 Washington Avenue , Bronx,  New York ",40.8312248,-73.9072406
"1212 Ocean Avenue , Brooklyn, ,  New York ","1212 Ocean Avenue , Brooklyn,  New York ",40.6326198,-73.9581623
"1218 Boston Road, Bronx,  New York ","1218 Boston Road , Bronx,  New York ",40.8299152,-73.9015145
"1225 Boston Road, Bronx,  New York ","1225 Boston Road , Bronx,  New York ",40.8302821,-73.9019817
"1228-30 Pacific Street , Brooklyn, ,  New York ","1228-30 Pacific Street , Brooklyn,  New York ",40.6775344,-73.9511477
"123 East 101 St ,Manhattan,  New York ","123 East 101 St , Manhattan,  New York ",40.7895337,-73.949208
"123-25 East 102 St ,Manhattan,  New York ","123-25 East 102 St , Manhattan,  New York ",40.7900585,-73.9484502
"1230 Boston Road, Bronx,  New York ","1230 Boston Road , Bronx,  New York ",40.8301919,-73.9011454
"1230-32-34 Spofford Avenue, Bronx,  New York ","1230-32-34 Spofford Avenue , Bronx,  New York ",40.8137483,-73.8895349
"124 East 102 Street ,Manhattan,  New York ","124 East 102 Street , Manhattan,  New York ",40.7896979,-73.9486679
"124 South 3 St , Brooklyn, ,  New York ","124 South 3 St , Brooklyn,  New York ",40.712483,-73.9628486
"125 East 101 St ,Manhattan,  New York ","125 East 101 St , Manhattan,  New York ",40.7894994,-73.9491249
"125 Schnectady Avenue , Brooklyn, ,  New York ","125 Schnectady Avenue , Brooklyn,  New York ",40.6747637,-73.9330655
"127 Guernsey St , Brooklyn, ,  New York ","127 Guernsey St , Brooklyn,  New York ",40.7252371,-73.9538722
"127 West 133 Street ,Manhattan,  New York ","127 West 133 Street , Manhattan,  New York ",40.8135013,-73.9429387
"128 29th Street , Brooklyn, ,  New York ","128 29th Street , Brooklyn,  New York ",40.658989,-74.0019728
"128 Rivington/131 Norfolk St ,Manhattan,  New York ","128 Rivington/131 Norfolk St , Manhattan,  New York ",40.719347,-73.986687
"128-30 West 138 St ,Manhattan,  New York ","128-30 West 138 St , Manhattan,  New York ",40.8165004,-73.9411037
"128-32 Eldridge St ,Manhattan,  New York ","128-32 Eldridge St , Manhattan,  New York ",40.7187204,-73.9915381
"1281 St Johns Place , Brooklyn, ,  New York ","1281 St Johns Place , Brooklyn,  New York ",40.6711223,-73.9357396
"129 MacDonough Street , Brooklyn, ,  New York ","129 MacDonough Street , Brooklyn,  New York ",40.6815294,-73.9411177
"129-31 Bedford Ave , Brooklyn, ,  New York ","129-31 Bedford Ave , Brooklyn,  New York ",40.7192654,-73.9559518
"129-31 East 102 Street ,Manhattan,  New York ","129-31 East 102 Street , Manhattan,  New York ",40.78987,-73.9483335
"129-35 Ridge Street ,Manhattan,  New York ","129-35 Ridge Street , Manhattan,  New York ",40.719648,-73.9829587
"1290 Lafayette Ave, Bronx,  New York ","1290 Lafayette Ave , Bronx,  New York ",40.8165446,-73.8874092
"1299-1303 Dean Street , Brooklyn, ,  New York ","1299-1303 Dean Street , Brooklyn,  New York ",40.676898,-73.9459058
"13 Scholes St , Brooklyn, ,  New York ","13 Scholes St , Brooklyn,  New York ",40.708279,-73.9499878
"13-15 Strong Place , Brooklyn, ,  New York ","13-15 Strong Place , Brooklyn,  New York ",40.6859083,-73.9973933
"130 West 26th Street ,Manhattan,  New York ","130 West 26th Street , Manhattan,  New York ",40.7451733,-73.9928582
"1304 Pacific Street , Brooklyn, ,  New York ","1304 Pacific Street , Brooklyn,  New York ",40.6773157,-73.9476056
"131 EAST ,Manhattan,  New York ","131 EAST , Manhattan,  New York ",40.8090648,-73.9367774
"1312 Pacific St , Brooklyn, ,  New York ","1312 Pacific St , Brooklyn,  New York ",40.6773205,-73.9473394
"1314 Oakley Street, Bronx,  New York ","1314 Oakley Street , Bronx,  New York ",40.878529,-73.8524681
"1316 STERLING PLACE , Brooklyn, ,  New York ","1316 STERLING PLACE , Brooklyn,  New York ",40.671491,-73.9350517
"132 West 113 Street ,Manhattan,  New York ","132 West 113 Street , Manhattan,  New York ",40.8006744,-73.9529862
"132 West 169 Street, Bronx,  New York ","132 West 169 Street , Bronx,  New York ",40.8399454,-73.9247122
"133 MacDonough Street , Brooklyn, ,  New York ","133 MacDonough Street , Brooklyn,  New York ",40.681543,-73.9410207
"133 West 89 St ,Manhattan,  New York ","133 West 89 St , Manhattan,  New York ",40.7893138,-73.9723443
"133-41 West 140 St ,Manhattan,  New York ","133-41 West 140 St , Manhattan,  New York ",40.8178093,-73.9391738
"134 Eldridge St ,Manhattan,  New York ","134 Eldridge St , Manhattan,  New York ",40.7188821,-73.9913802
"134 West 113 Street ,Manhattan,  New York ","134 West 113 Street , Manhattan,  New York ",40.8007048,-73.9530644
"134 West 20th Street ,Manhattan,  New York ","134 West 20th Street , Manhattan,  New York ",40.7415689,-73.9957893
"134-36 Cambridge Place , Brooklyn, ,  New York ","134-36 Cambridge Place , Brooklyn,  New York ",40.6833257,-73.9630445
"1346 Eastern Parkway , Brooklyn, ,  New York ","1346 Eastern Parkway , Brooklyn,  New York ",40.6679066,-73.92372
"1346 Park Place , Brooklyn, ,  New York ","1346 Park Place , Brooklyn,  New York ",40.6723825,-73.9329684
"1347 Bristow St, Bronx,  New York ","1347 Bristow St , Bronx,  New York ",40.8319427,-73.8950598
"135 West 89 St ,Manhattan,  New York ","135 West 89 St , Manhattan,  New York ",40.789357,-73.9724042
"135-37 West 115 St ,Manhattan,  New York ","135-37 West 115 St , Manhattan,  New York ",40.8022856,-73.9519989
"136 NOW UNITED, Bronx,  New York ","136 NOW UNITED , Bronx,  New York ",40.8062684,-73.9201724
"136 West 133 St ,Manhattan,  New York ","136 West 133 St , Manhattan,  New York ",40.8132036,-73.943236
"137 Keap Street , Brooklyn, ,  New York ","137 Keap Street , Brooklyn,  New York ",40.7043011,-73.9601723
"137-39 West 116 St ,Manhattan,  New York ","137-39 West 116 St , Manhattan,  New York ",40.8029506,-73.9511736
"1372 Franklin Avenue, Bronx,  New York ","1372 Franklin Avenue , Bronx,  New York ",40.8333669,-73.9003548
"1372 Shakespeare Ave, Bronx,  New York ","1372 Shakespeare Ave , Bronx,  New York ",40.8412247,-73.9216103
"138 East 98 Street ,Manhattan,  New York ","138 East 98 Street , Manhattan,  New York ",40.7869477,-73.9497954
"1383 Plimpton Ave, Bronx,  New York ","1383 Plimpton Ave , Bronx,  New York ",40.8423705,-73.9234444
"1387 Dean St , Brooklyn, ,  New York ","1387 Dean St , Brooklyn,  New York ",40.6767336,-73.9427097
"14 East 96 Street , Brooklyn, ,  New York ","14 East 96 Street , Brooklyn,  New York ",40.6650206,-73.9262489
"14 Morningside Ave ,Manhattan,  New York ","14 Morningside Ave , Manhattan,  New York ",40.8049045,-73.9580705
"14 West 119 St ,Manhattan,  New York ","14 West 119 St , Manhattan,  New York ",40.802842,-73.9458486
"14-15 Mott Avenue , Queens,  New York ",14-15 Mott Avenue  Queens New York ,40.6011809,-73.7483589
"1405 Prospect Place , Brooklyn, ,  New York ","1405 Prospect Place , Brooklyn,  New York ",40.6733835,-73.9300041
"141 Attorney St ,Manhattan,  New York ","141 Attorney St , Manhattan,  New York ",40.7198709,-73.9837983
"141 MacDonough Street , Brooklyn, ,  New York ","141 MacDonough Street , Brooklyn,  New York ",40.6815502,-73.9408276
"143-45 Wadsworth Avenue ,Manhattan,  New York ","143-45 Wadsworth Avenue , Manhattan,  New York ",40.849272,-73.9350662
"145-47 West 105 Street ,Manhattan,  New York ","145-47 West 105 Street , Manhattan,  New York ",40.7981051,-73.9617565
"145-57 Morningside Avenue ,Manhattan,  New York ","145-57 Morningside Avenue , Manhattan,  New York ",40.8081796,-73.9559692
"1463 Amsterdam Ave ,Manhattan,   New York ","1463 Amsterdam Ave , Manhattan,   New York ",40.8169654,-73.9532671
"1486 Fifth Ave ,Manhattan,   New York ","1486 Fifth Ave , Manhattan,   New York ",40.8029316,-73.9451062
"149-51 Grand Street ,Manhattan,  New York ","149-51 Grand Street , Manhattan,  New York ",40.7222838,-74.0039031
"149-51 South 4 Street , Brooklyn, ,  New York ","149-51 South 4 Street , Brooklyn,  New York ",40.711716,-73.9621261
"1493 Eastern Parkway , Brooklyn, ,  New York ","1493 Eastern Parkway , Brooklyn,  New York ",40.6702885,-73.918582
"15 East 126 St ,Manhattan,  New York ","15 East 126 St , Manhattan,  New York ",40.8069757,-73.9408552
"15 Fort Washington Ave ,Manhattan,  New York ","15 Fort Washington Ave , Manhattan,  New York ",40.835546,-73.9448891
"1500 Boston Road, Bronx,  New York ","1500 Boston Road , Bronx,  New York ",40.8351552,-73.8934056
"1508 Amsterdam Ave,Manhattan,  New York ","1508 Amsterdam Ave, Manhattan,  New York ",40.8186709,-73.9527694
"151 Eagle Street , Brooklyn, ,  New York ","151 Eagle Street , Brooklyn,  New York ",40.7353548,-73.9546552
"151 First Avenue ,Manhattan,  New York ","151 First Avenue , Manhattan,  New York ",40.72854,-73.9850071
"1511 Lexington Ave ,Manhattan,  New York ","1511 Lexington Ave , Manhattan,  New York ",40.7867958,-73.9499685
"1513 Lexington Ave ,Manhattan,  New York ","1513 Lexington Ave , Manhattan,  New York ",40.786856,-73.9499255
"1513-15 West 7th Street , Brooklyn, ,  New York ","1513-15 West 7th Street , Brooklyn,  New York ",40.6101289,-73.9809999
"1516 Bedford Avenue , Brooklyn, ,  New York ","1516 Bedford Avenue , Brooklyn,  New York ",40.67152,-73.955064
"152 East 116 St Tenant Assoc,Manhattan,  New York ","152 East 116 St Tenant Assoc, Manhattan,  New York ",40.7983131,-73.9415536
"152 Forsyth St ,Manhattan,  New York ","152 Forsyth St , Manhattan,  New York ",40.7204821,-73.9915009
"152 West 144 St ,Manhattan,  New York ","152 West 144 St , Manhattan,  New York ",40.8204035,-73.9387146
"1527 Lincoln Place , Brooklyn, ,  New York ","1527 Lincoln Place , Brooklyn,  New York ",40.6696896,-73.9260707
"153 1/2 Stanton Street ,Manhattan,  New York ","153 1/2 Stanton Street , Manhattan,  New York ",40.7203098,-73.9850718
"153 South 4 Street , Brooklyn, ,  New York ","153 South 4 Street , Brooklyn,  New York ",40.711735,-73.9620442
"154 East 97 St ,Manhattan,  New York ","154 East 97 St , Manhattan,  New York ",40.7860598,-73.9497378
"154-6 South 3 Street , Brooklyn, ,  New York ","154-6 South 3 Street , Brooklyn,  New York ",40.712002,-73.961825
"155 Avenue C ,Manhattan,  New York ","155 Avenue C , Manhattan,  New York ",40.7257725,-73.9779517
"155 East 2 St ,Manhattan,  New York ","155 East 2 St , Manhattan,  New York ",40.7226132,-73.9854593
"155 Hope Street Partnership, Brooklyn, ,  New York ","155 Hope Street Partnership, Brooklyn,  New York ",40.7119804,-73.9519082
"1551 Park Place , Brooklyn, ,  New York ","1551 Park Place , Brooklyn,  New York ",40.6723601,-73.925992
"1555 Seabury Place, Bronx,  New York ","1555 Seabury Place , Bronx,  New York ",40.8354744,-73.8911847
"156 East 97 St ,Manhattan,  New York ","156 East 97 St , Manhattan,  New York ",40.786025,-73.9496578
"156 St. Marks Avenue , Brooklyn, ,  New York ","156 St. Marks Avenue , Brooklyn,  New York ",40.6788281,-73.971347
"157 East 2 Street ,Manhattan,  New York ","157 East 2 Street , Manhattan,  New York ",40.7225638,-73.9852532
"157 West 120th Street ,Manhattan,  New York ","157 West 120th Street , Manhattan,  New York ",40.8057082,-73.9499996
"157 West 123rd Street ,Manhattan,  New York ","157 West 123rd Street , Manhattan,  New York ",40.8075857,-73.9486765
"157-61 West 105 Street ,Manhattan,  New York ","157-61 West 105 Street , Manhattan,  New York ",40.7996349,-73.9653485
"1580 Amsterdam Ave ,Manhattan,  New York ","1580 Amsterdam Ave , Manhattan,  New York ",40.821224,-73.9509758
"16 Maujer Street , Brooklyn, ,  New York ","16 Maujer Street , Brooklyn,  New York ",40.7101059,-73.9501708
"16 Morningside Ave ,Manhattan,  New York ","16 Morningside Ave , Manhattan,  New York ",40.8051519,-73.9580475
"16-18 West 119 Street ,Manhattan,  New York ","16-18 West 119 Street , Manhattan,  New York ",40.8028882,-73.9459536
"160 Bleecker Street ,Manhattan,  New York ","160 Bleecker Street , Manhattan,  New York ",40.7284664,-74.0002081
"160-64 East 2 Street ,Manhattan,  New York ","160-64 East 2 Street , Manhattan,  New York ",40.7229004,-73.9851346
"1600 Nelson Avenue, Bronx,  New York ","1600 Nelson Avenue , Bronx,  New York ",40.846339,-73.919095
"1608-10 Amsterdam Ave ,Manhattan,  New York ","1608-10 Amsterdam Ave , Manhattan,  New York ",40.8217389,-73.9503784
"1611 Lincoln Place , Brooklyn, ,  New York ","1611 Lincoln Place , Brooklyn,  New York ",40.6694992,-73.9232687
"162-68 Lenox Ave ,Manhattan,  New York ","162-68 Lenox Ave , Manhattan,  New York ",40.8034454,-73.9483144
"163 Lefferts Place , Brooklyn, ,  New York ","163 Lefferts Place , Brooklyn,  New York ",40.6807939,-73.9570838
"163 Lenox Ave ,Manhattan,  New York ","163 Lenox Ave , Manhattan,  New York ",40.803628,-73.948843
"164 Ralph Avenue , Brooklyn, ,  New York ","164 Ralph Avenue , Brooklyn,  New York ",40.6843427,-73.9231379
"1646 Amsterdam Avenue ,Manhattan,   New York ","1646 Amsterdam Avenue , Manhattan,   New York ",40.8230439,-73.9495949
"165-167-169 Ave C ,Manhattan,   New York ","165-167-169 Ave C , Manhattan,   New York ",40.7261508,-73.977697
"166 West 122 St ,Manhattan,  New York ","166 West 122 St , Manhattan,  New York ",40.8067815,-73.9494132
"166-68-70 Mulberry St ,Manhattan,  New York ","166-68-70 Mulberry St , Manhattan,  New York ",40.7197447,-73.9970214
"167 West 129 ,Manhattan,  New York ","167 West 129 , Manhattan,  New York ",40.8114408,-73.9460473
"167 West 133 St ,Manhattan,  New York ","167 West 133 St , Manhattan,  New York ",40.8139074,-73.9438615
"167-69 Allen Street ,Manhattan,  New York ","167-69 Allen Street , Manhattan,  New York ",40.7213192,-73.9896527
"167-75 Havemeyer Street , Brooklyn, ,  New York ","167-75 Havemeyer Street , Brooklyn,  New York ",40.7109875,-73.9577649
"168 Norfolk Street ,Manhattan,  New York ","168 Norfolk Street , Manhattan,  New York ",40.7209816,-73.9858527
"17 Clinton St ,Manhattan,  New York ","17 Clinton St , Manhattan,  New York ",40.7208364,-73.9843415
"17 Pennsylvania Avenue ,Manhattan,  New York ","17 Pennsylvania Avenue , Manhattan,  New York ",40.677793,-73.897001
"17-19 West 108 Street ,Manhattan,  New York ","17-19 West 108 Street , Manhattan,  New York ",40.79997,-73.960161
"170 West 85 Street ,Manhattan,  New York ","170 West 85 Street , Manhattan,  New York ",40.7867652,-73.9753353
"1711 Davidson Avenue, Bronx,  New York ","1711 Davidson Avenue , Bronx,  New York ",40.8473888,-73.9140217
"1711-1723 Townsend Ave, Bronx,  New York ","1711-1723 Townsend Ave , Bronx,  New York ",40.846739,-73.912191
"1715 Nelson Avenue, Bronx,  New York ","1715 Nelson Avenue , Bronx,  New York ",40.8486801,-73.9167059
"172 Delancey St ,Manhattan,  New York ","172 Delancey St , Manhattan,  New York ",40.7178535,-73.9851679
"172 Forsyth St ,Manhattan,  New York ","172 Forsyth St , Manhattan,  New York ",40.721322,-73.9910607
"172 Franklin Street , Brooklyn, ,  New York ","172 Franklin Street , Brooklyn,  New York ",40.7310912,-73.9575646
"175 Claremont Avenue ,Manhattan,  New York ","175 Claremont Avenue , Manhattan,  New York ",40.8142918,-73.9609306
"175 East 102 Street ,Manhattan,  New York ","175 East 102 Street , Manhattan,  New York ",40.7894315,-73.9470473
"175 Rivington Street ,Manhattan,  New York ","175 Rivington Street , Manhattan,  New York ",40.7187352,-73.9847294
"176 Grand Street Ext. , Brooklyn, ,  New York ","176 Grand Street Ext. , Brooklyn,  New York ",40.7142527,-73.9611241
"176 Stuyvesant Avenue , Brooklyn, ,  New York ","176 Stuyvesant Avenue , Brooklyn,  New York ",40.6893341,-73.9336227
"176-78 West 81 St ,Manhattan,  New York ","176-78 West 81 St , Manhattan,  New York ",40.7841062,-73.9770317
"177 East 102 St ,Manhattan,  New York ","177 East 102 St , Manhattan,  New York ",40.7893967,-73.9469601
"177 West 83 Street ,Manhattan,  New York ","177 West 83 Street , Manhattan,  New York ",40.7856899,-73.976047
"1770 Walton Avenue, Bronx,  New York ","1770 Walton Avenue , Bronx,  New York ",40.8476829,-73.909898
"1775-77-79 Madison Ave ,Manhattan,  New York ","1775-77-79 Madison Ave , Manhattan,  New York ",40.7761637,-73.9610081
"1776 Topping Ave, Bronx,  New York ","1776 Topping Ave , Bronx,  New York ",40.846139,-73.9054034
"180 St Nicholas Ave ,Manhattan,  New York ","180 St Nicholas Ave , Manhattan,  New York ",40.805905,-73.9524852
"180-84 East 104 St , Brooklyn, ,  New York ","180-84 East 104 St , Brooklyn,  New York ",40.79031,-73.9463169
"1801-05 7th Ave , Brooklyn, ,  New York ","1801-05 7th Ave , Brooklyn,  New York ",40.6773492,-73.9732105
"1809 Adam Clayton Powell Blvd ,Manhattan,  New York ","1809 Adam Clayton Powell Blvd , Manhattan,  New York ",40.7996317,-73.954792
"182-4 Conselyea Street , Brooklyn, ,  New York ","182-4 Conselyea Street , Brooklyn,  New York ",40.715226,-73.9437108
"1834 Second Avenue ,Manhattan,  New York ","1834 Second Avenue , Manhattan,  New York ",40.7832876,-73.9474858
"184 Monroe Street , Brooklyn, ,  New York ","184 Monroe Street , Brooklyn,  New York ",40.6851517,-73.9519172
"184 Van Buren Street , Brooklyn, ,  New York ","184 Van Buren Street , Brooklyn,  New York ",40.6904107,-73.9387546
"1840 Seventh Ave ,Manhattan,  New York ","1840 Seventh Ave , Manhattan,  New York ",40.8004719,-73.9550322
"185 East 163rd Street, Bronx,  New York ","185 East 163rd Street , Bronx,  New York ",40.8284499,-73.920539
"185-87 East 2 St ,Manhattan,  New York ","185-87 East 2 St , Manhattan,  New York ",40.7221811,-73.9843783
"185-87 West 80 Street ,Manhattan,  New York ","185-87 West 80 Street , Manhattan,  New York ",40.783813,-73.977462
"1854 Monroe Avenue, Bronx,  New York ","1854 Monroe Avenue , Bronx,  New York ",40.848121,-73.9060334
"1855 Seventh Avenue ,Manhattan,  New York ","1855 Seventh Avenue , Manhattan,  New York ",40.8013392,-73.9534676
"1862-66 3 Avenue ,Manhattan,  New York ","1862-66 3 Avenue , Manhattan,  New York ",40.789647,-73.9465366
"1864 7th Avenue ,Manhattan,  New York ","1864 7th Avenue , Manhattan,  New York ",40.8014424,-73.9539523
"1867-69 Seventh Avenue ,Manhattan,  New York ","1867-69 Seventh Avenue , Manhattan,  New York ",40.8015216,-73.9533338
"1870 Morris Ave, Bronx,  New York ","1870 Morris Ave , Bronx,  New York ",40.8486057,-73.9081745
"1878 Seventh Ave ,Manhattan,  New York ","1878 Seventh Ave , Manhattan,  New York ",40.8019196,-73.9540112
"188-90 Eighth Ave ,Manhattan,  New York ","188-90 Eighth Ave , Manhattan,  New York ",40.7430223,-73.9997449
"1885-93 Seventh Avenue , Brooklyn, ,  New York ","1885-93 Seventh Avenue , Brooklyn,  New York ",40.6744699,-73.9754586
"1890 Pacific Street , Brooklyn, ,  New York ","1890 Pacific Street , Brooklyn,  New York ",40.6760531,-73.9240943
"1892 WALTON AVENUE, Bronx,  New York ","1892 WALTON AVENUE , Bronx,  New York ",40.8494824,-73.9090934
"1898 Longfellow Avenue, Bronx,  New York ","1898 Longfellow Avenue , Bronx,  New York ",40.8387718,-73.8822607
"19 Bedford Street ,Manhattan,  New York ","19 Bedford Street , Manhattan,  New York ",40.7289646,-74.0036283
"19 Kingsland Avenue , Brooklyn, ,  New York ","19 Kingsland Avenue , Brooklyn,  New York ",40.7166058,-73.940417
"19 Scholes St , Brooklyn, ,  New York ","19 Scholes St , Brooklyn,  New York ",40.7083366,-73.9497685
"19 West 105 Street ,Manhattan,  New York ","19 West 105 Street , Manhattan,  New York ",40.7979036,-73.9613077
"19 West 106 St ,Manhattan,  New York ","19 West 106 St , Manhattan,  New York ",40.7987016,-73.9608786
"1900 Longfellow Avenue, Bronx,  New York ","1900 Longfellow Avenue , Bronx,  New York ",40.8389209,-73.8820135
"191 East 3 St ,Manhattan,  New York ","191 East 3 St , Manhattan,  New York ",40.7230762,-73.9834162
"192 East 164 St, Bronx,  New York ","192 East 164 St , Bronx,  New York ",40.8291048,-73.9198777
"192 Skillman Street , Brooklyn, ,  New York ","192 Skillman Street , Brooklyn,  New York ",40.6924867,-73.9569034
"1931 Madison Avenue ,Manhattan,  New York ","1931 Madison Avenue , Manhattan,  New York ",40.805088,-73.940857
"1944 Loring Place, Bronx,  New York ","1944 Loring Place , Bronx,  New York ",40.8553039,-73.9140087
"195 South 4 Street , Brooklyn, ,  New York ","195 South 4 Street , Brooklyn,  New York ",40.7110764,-73.9602726
"1961 Mapes Avenue, Bronx,  New York ","1961 Mapes Avenue , Bronx,  New York ",40.844145,-73.8878678
"1974 Crotona Avenue, Bronx,  New York ","1974 Crotona Avenue , Bronx,  New York ",40.845883,-73.8903972
"1974-76 Lafontaine Ave, Bronx,  New York ","1974-76 Lafontaine Ave , Bronx,  New York ",40.8470234,-73.8936761
"1986 Grand Avenue, Bronx,  New York ","1986 Grand Avenue , Bronx,  New York ",40.8525796,-73.9103945
"1987-89 Amsterdam Avenue ,Manhattan,  New York ","1987-89 Amsterdam Avenue , Manhattan,  New York ",40.8337772,-73.9411647
"1993 Amsterdam Ave ,Manhattan,   New York ","1993 Amsterdam Ave , Manhattan,   New York ",40.8337891,-73.9409648
"2 Arlington Place , Brooklyn, ,  New York ","2 Arlington Place , Brooklyn,  New York ",40.6814402,-73.9515613
"2 Webster Avenue , Brooklyn, ,  New York ","2 Webster Avenue , Brooklyn,  New York ",40.6288476,-73.9785659
"20 East 116 St ,Manhattan,  New York ","20 East 116 St , Manhattan,  New York ",40.7999924,-73.9455312
"20 Westminster Road , Brooklyn, ,  New York ","20 Westminster Road , Brooklyn,  New York ",40.6486732,-73.9689396
"200 Claremont Avenue ,Manhattan,  New York ","200 Claremont Avenue , Manhattan,  New York ",40.8152,-73.9597557
"200 West 112 St ,Manhattan,  New York ","200 West 112 St , Manhattan,  New York ",40.8007489,-73.9548415
"200-02 Kingsland Ave , Brooklyn, ,  New York ","200-02 Kingsland Ave , Brooklyn,  New York ",40.723727,-73.9410954
"2000 Daly Avenue, Bronx,  New York ","2000 Daly Avenue , Bronx,  New York ",40.842951,-73.8828256
"201 West 104 Street ,Manhattan,  New York ","201 West 104 Street , Manhattan,  New York ",40.799368,-73.966888
"2015 Grand Avenue, Bronx,  New York ","2015 Grand Avenue , Bronx,  New York ",40.8533973,-73.9101751
"2016 Third Ave ,Manhattan,  New York ","2016 Third Ave , Manhattan,  New York ",40.794709,-73.9427102
"2017 Grand Concourse, Bronx,  New York ","2017 Grand Concourse , Bronx,  New York ",40.8518588,-73.9045611
"202-04 West 118 Street ,Manhattan,  New York ","202-04 West 118 Street , Manhattan,  New York ",40.8044907,-73.9521058
"2023 Belmont Ave, Bronx,  New York ","2023 Belmont Ave , Bronx,  New York ",40.8477828,-73.8906495
"2024 Hughes Ave, Bronx,  New York ","2024 Hughes Ave , Bronx,  New York ",40.8477741,-73.8909647
"2025 Valentine Ave, Bronx,  New York ","2025 Valentine Ave , Bronx,  New York ",40.8511833,-73.9006973
"2039 Hughes Avenue, Bronx,  New York ","2039 Hughes Avenue , Bronx,  New York ",40.8484649,-73.8910417
"2041 Fifth Avenue ,Manhattan,   New York ","2041 Fifth Avenue , Manhattan,   New York ",40.8072261,-73.9414195
"205 East Broadway ,Manhattan,   New York ","205 East Broadway , Manhattan,   New York ",40.714076,-73.9879102
"2053 7th Avenue ,Manhattan,   New York ","2053 7th Avenue , Manhattan,   New York ",40.8072662,-73.9491402
"206 West 121 Street ,Manhattan,  New York ","206 West 121 Street , Manhattan,  New York ",40.806496,-73.9508945
"2068-78 Bathgate Avenue, Bronx,  New York ","2068-78 Bathgate Avenue , Bronx,  New York ",40.8505607,-73.8948487
"207 Troy Ave , Brooklyn, ,  New York ","207 Troy Ave , Brooklyn,  New York ",40.6723216,-73.9361315
"207 West 147 Street ,Manhattan,  New York ","207 West 147 Street , Manhattan,  New York ",40.8234533,-73.9388239
"207-13 West 144 Street ,Manhattan,  New York ","207-13 West 144 Street , Manhattan,  New York ",40.8214993,-73.9401841
"208 Forsyth St ,Manhattan,  New York ","208 Forsyth St , Manhattan,  New York ",40.7228338,-73.99028
"2089-91 Amsterdam Ave ,Manhattan,  New York ","2089-91 Amsterdam Ave , Manhattan,  New York ",40.8368125,-73.9387668
"209 East Seventh Street ,Manhattan,  New York ","209 East Seventh Street , Manhattan,  New York ",40.7246789,-73.979858
"21 East 1 Street  / JUPTER 21,Manhattan,  New York ","21 East 1 Street  / JUPTER 21, Manhattan,  New York ",40.7241837,-73.9912212
"210 Forsyth Street ,Manhattan,  New York ","210 Forsyth Street , Manhattan,  New York ",40.722911,-73.99028
"210-12 East Tremont Avenue, Bronx,  New York ","210-12 East Tremont Avenue , Bronx,  New York ",40.8488399,-73.9053953
"211 St James Place , Brooklyn, ,  New York ","211 St James Place , Brooklyn,  New York ",40.6833095,-73.9635184
"211 West 135 St ,Manhattan,  New York ","211 West 135 St , Manhattan,  New York ",40.8158863,-73.9445423
"211 West 147 Street ,Manhattan,  New York ","211 West 147 Street , Manhattan,  New York ",40.8235629,-73.9390605
"2114 Belmont Avenue, Bronx,  New York ","2114 Belmont Avenue , Bronx,  New York ",40.8490187,-73.8892917
"2116 Honeywell Avenue, Bronx,  New York ","2116 Honeywell Avenue , Bronx,  New York ",40.8453769,-73.8818519
"212 West 105 St ,Manhattan,  New York ","212 West 105 St , Manhattan,  New York ",40.7998458,-73.9669343
"212-14 West 108 St ,Manhattan,  New York ","212-14 West 108 St , Manhattan,  New York ",40.8019298,-73.9657235
"2120 Mapes Avenue, Bronx,  New York ","2120 Mapes Avenue , Bronx,  New York ",40.8470675,-73.8849335
"2122 Valentine Avenue, Bronx,  New York ","2122 Valentine Avenue , Bronx,  New York ",40.853614,-73.899115
"2127 First Ave ,Manhattan,  New York ","2127 First Ave , Manhattan,  New York ",-73.9386893,-73.9386893
"213-15 Mott Street ,Manhattan,  New York ","213-15 Mott Street , Manhattan,  New York ",40.7220797,-73.995445
"2130 Tiebout Ave, Bronx,  New York ","2130 Tiebout Ave , Bronx,  New York ",40.853606,-73.8982261
"214 Bradhurst Avenue ,Manhattan,  New York ","214 Bradhurst Avenue , Manhattan,  New York ",40.8278431,-73.9393985
"2141 Prospect Avenue, Bronx,  New York ","2141 Prospect Avenue , Bronx,  New York ",40.848409,-73.8859022
"2146 Cortelyou Road , Brooklyn, ,  New York ","2146 Cortelyou Road , Brooklyn,  New York ",40.6439267,-73.9570816
"2149-53 Pacific Street , Brooklyn, ,  New York ","2149-53 Pacific Street , Brooklyn,  New York ",40.6759971,-73.9152776
"215 Audubon Avenue ,Manhattan,  New York ","215 Audubon Avenue , Manhattan,  New York ",40.8452213,-73.934555
"2159 First Avenue ,Manhattan,  New York ","2159 First Avenue , Manhattan,  New York ",40.7932882,-73.9376813
"216 East Tremont Ave, Bronx,  New York ","216 East Tremont Ave , Bronx,  New York ",40.8488286,-73.9052006
"2163 Morris Avenue, Bronx,  New York ","2163 Morris Avenue , Bronx,  New York ",40.8555748,-73.9038353
"2167 Crotona Avenue, Bronx,  New York ","2167 Crotona Avenue , Bronx,  New York ",40.8501724,-73.8870359
"2168 Second Avenue ,Manhattan,  New York ","2168 Second Avenue , Manhattan,  New York ",40.7940078,-73.9396732
"217 Kingsland Avenue , Brooklyn, ,  New York ","217 Kingsland Avenue , Brooklyn,  New York ",40.724001,-73.9416517
"2178 Atlantic Ave , Brooklyn, ,  New York ","2178 Atlantic Ave , Brooklyn,  New York ",40.6762546,-73.9143085
"218 Scholes Street , Brooklyn, ,  New York ","218 Scholes Street , Brooklyn,  New York ",40.70884,-73.940246
"2181 Pacific St , Brooklyn, ,  New York ","2181 Pacific St , Brooklyn,  New York ",40.6759346,-73.9141713
"2182 Atlantic Avenue , Brooklyn, ,  New York ","2182 Atlantic Avenue , Brooklyn,  New York ",40.6762406,-73.9141278
"219 East 7 Street ,Manhattan,  New York ","219 East 7 Street , Manhattan,  New York ",40.7241686,-73.9794599
"219 Thomas S. Boyland St , Brooklyn, ,  New York ","219 Thomas S. Boyland St , Brooklyn,  New York ",40.6769985,-73.9133741
"219-29 West 144 Street ,Manhattan,  New York ","219-29 West 144 Street , Manhattan,  New York ",40.8216116,-73.9405361
"2195 Seventh Ave ,Manhattan,  New York ","2195 Seventh Ave , Manhattan,  New York ",40.8118655,-73.9457889
"220 East 10 Street ,Manhattan,  New York ","220 East 10 Street , Manhattan,  New York ",40.7291348,-73.9857964
"220 Lee Avenue , Brooklyn, ,  New York ","220 Lee Avenue , Brooklyn,  New York ",40.7011699,-73.9550359
"221 East 173 Street, Bronx,  New York ","221 East 173 Street , Bronx,  New York ",40.8439229,-73.9088813
"223-25 East 3 Street ,Manhattan,  New York ","223-25 East 3 Street , Manhattan,  New York ",40.722467,-73.981917
"223-25 East 4 Street ,Manhattan,  New York ","223-25 East 4 Street , Manhattan,  New York ",40.72378,-73.983144
"224 Lefferts Avenue , Brooklyn, ,  New York ","224 Lefferts Avenue , Brooklyn,  New York ",40.6620277,-73.9540153
"2247 Hughes Avenue, Bronx,  New York ","2247 Hughes Avenue , Bronx,  New York ",40.8519096,-73.8887103
"225-227 South 3 St , Brooklyn, ,  New York ","225-227 South 3 St , Brooklyn,  New York ",40.7112,-73.958309
"2250 Webster Avenue, Bronx,  New York ","2250 Webster Avenue , Bronx,  New York ",40.8553776,-73.8958083
"226 West 111 St ,Manhattan,  New York ","226 West 111 St , Manhattan,  New York ",40.8005857,-73.9565781
"226 West 113 Street ,Manhattan,  New York ","226 West 113 Street , Manhattan,  New York ",40.8014515,-73.9548651
"227 South 2 St , Brooklyn, ,  New York ","227 South 2 St , Brooklyn,  New York ",40.7121684,-73.9584149
"227-29 East 14 Street , Brooklyn, ,  New York ","227-29 East 14 Street , Brooklyn,  New York ",40.7330263,-73.9859184
"228-32 Crystal Street , Brooklyn, ,  New York ","228-32 Crystal Street , Brooklyn,  New York ",40.6730329,-73.8741106
"229 East 4 Street ,Manhattan,  New York ","229 East 4 Street , Manhattan,  New York ",40.7236754,-73.9830159
"229 East 7 Street ,Manhattan,  New York ","229 East 7 Street , Manhattan,  New York ",40.7242777,-73.9790622
"229 Lee Avenue , Brooklyn, ,  New York ","229 Lee Avenue , Brooklyn,  New York ",40.7012478,-73.9546338
"229 West 113 Street ,Manhattan,  New York ","229 West 113 Street , Manhattan,  New York ",40.8018621,-73.9547757
"229-31 West 111 St ,Manhattan,  New York ","229-31 West 111 St , Manhattan,  New York ",40.7985825,-73.9505641
"230 East 95 St , Brooklyn, ,  New York ","230 East 95 St , Brooklyn,  New York ",40.6605397,-73.9227024
"230 Lee Ave , Brooklyn, ,  New York ","230 Lee Ave , Brooklyn,  New York ",40.7009791,-73.9549294
"230-40 Bushwick Avenue , Queens,  New York ",230-40 Bushwick Avenue  Queens New York ,40.7078762,-73.9400241
"2301 Seventh Ave ,Manhattan,  New York ","2301 Seventh Ave , Manhattan,  New York ",40.8153436,-73.9432996
"231 East 10 St ,Manhattan,  New York ","231 East 10 St , Manhattan,  New York ",40.7293036,-73.9851571
"231 Maujer Street , Brooklyn, ,  New York ","231 Maujer Street , Brooklyn,  New York ",40.7112616,-73.9410202
"2310 Clarendon Road , Brooklyn, ,  New York ","2310 Clarendon Road , Brooklyn,  New York ",40.6426164,-73.9550398
"232 Moffat Street , Brooklyn, ,  New York ","232 Moffat Street , Brooklyn,  New York ",40.6886797,-73.9050191
"2321-23 Newkirk Ave , Brooklyn, ,  New York ","2321-23 Newkirk Ave , Brooklyn,  New York ",40.6394623,-73.9554203
"2323 Loring Place North, Bronx,  New York ","2323 Loring Place North , Bronx,  New York ",40.8623923,-73.908127
"233 Stuyvesant Avenue , Brooklyn, ,  New York ","233 Stuyvesant Avenue , Brooklyn,  New York ",40.6866552,-73.9325492
"234 South 3 St , Brooklyn, ,  New York ","234 South 3 St , Brooklyn,  New York ",40.7108851,-73.9585686
"235 East 121 St ,Manhattan,  New York ","235 East 121 St , Manhattan,  New York ",40.8007297,-73.9361888
"236-8 New Jersey Avenue , Brooklyn, ,  New York ","236-8 New Jersey Avenue , Brooklyn,  New York ",40.6738447,-73.8955785
"237 East 121 St ,Manhattan,  New York ","237 East 121 St , Manhattan,  New York ",40.8007,-73.9361128
"237 West 135 Street ,Manhattan,  New York ","237 West 135 Street , Manhattan,  New York ",40.8163473,-73.9454815
"237-39 Hancock Street , Brooklyn, ,  New York ","237-39 Hancock Street , Brooklyn,  New York ",40.6831726,-73.9465223
"238 West 106 Street ,Manhattan,  New York ","238 West 106 Street , Manhattan,  New York ",40.8007503,-73.9669556
"238 West 112 Street ,Manhattan,  New York ","238 West 112 Street , Manhattan,  New York ",40.8012153,-73.9559325
"2380 Arthur Ave, Bronx,  New York ","2380 Arthur Ave , Bronx,  New York ",40.8549468,-73.8878157
"2381 Dean Street , Brooklyn, ,  New York ","2381 Dean Street , Brooklyn,  New York ",40.6747923,-73.9084715
"2386 Arthur Avenue, Bronx,  New York ","2386 Arthur Avenue , Bronx,  New York ",40.855064,-73.887826
"2386 Morris Ave, Bronx,  New York ","2386 Morris Ave , Bronx,  New York ",40.8600426,-73.9004511
"24 Cooper St ,Manhattan,  New York ","24 Cooper St , Manhattan,  New York ",40.8677326,-73.9246385
"24 St Marks Place , Brooklyn, ,  New York ","24 St Marks Place , Brooklyn,  New York ",40.6823335,-73.9817344
"240 Echo Place, Bronx,  New York ","240 Echo Place , Bronx,  New York ",40.8494256,-73.9040594
"240 West 112 Street ,Manhattan,  New York ","240 West 112 Street , Manhattan,  New York ",40.801259,-73.9560345
"2400-10 Davidson Ave, Bronx,  New York ","2400-10 Davidson Ave , Bronx,  New York ",40.861642,-73.9027568
"241 South 3 Street , Brooklyn, ,  New York ","241 South 3 Street , Brooklyn,  New York ",40.7109202,-73.9576597
"241 West 111 Street ,Manhattan,  New York ","241 West 111 Street , Manhattan,  New York ",40.8009517,-73.9564403
"2416 Newkirk Ave , Brooklyn, ,  New York ","2416 Newkirk Ave , Brooklyn,  New York ",40.6394559,-73.9534785
"242 West 112 St ,Manhattan,  New York ","242 West 112 St , Manhattan,  New York ",40.8012098,-73.9562095
"242-44 South 2 Street , Brooklyn, ,  New York ","242-44 South 2 Street , Brooklyn,  New York ",40.7116597,-73.958323
"2420 Beaumont Avenue, Bronx,  New York ","2420 Beaumont Avenue , Bronx,  New York ",40.8546721,-73.8839434
"243F Mulberry St ,Manhattan,  New York ","243F Mulberry St , Manhattan,  New York ",40.7229447,-73.9960304
"244 Elizabeth Street ,Manhattan,  New York ","244 Elizabeth Street , Manhattan,  New York ",40.7233995,-73.9937234
"2440-50 Amsterdam Avenue ,Manhattan,  New York ","2440-50 Amsterdam Avenue , Manhattan,  New York ",40.8485417,-73.930871
"2456 ARTHUR AVENUE, Bronx,  New York ","2456 ARTHUR AVENUE , Bronx,  New York ",40.8566612,-73.8863417
"246 Cornelia Street , Brooklyn, ,  New York ","246 Cornelia Street , Brooklyn,  New York ",40.6933281,-73.912077
"2460 Seventh Ave ,Manhattan,  New York ","2460 Seventh Ave , Manhattan,  New York ",40.8207632,-73.9402104
"248 East 3 St ,Manhattan,  New York ","248 East 3 St , Manhattan,  New York ",40.7217334,-73.9813474
"25 Madison Street ,Manhattan,  New York ","25 Madison Street , Manhattan,  New York ",40.711957,-73.9993159
"25 Stratford Road , Brooklyn, ,  New York ","25 Stratford Road , Brooklyn,  New York ",40.648219,-73.9692899
"250 East 178 St, Bronx,  New York ","250 East 178 St , Bronx,  New York ",40.8500382,-73.9031663
"250 Madison St ,Manhattan,  New York ","250 Madison St , Manhattan,  New York ",40.7126305,-73.9872572
"251 East 204 Street, Bronx,  New York ","251 East 204 Street , Bronx,  New York ",40.8744009,-73.884215
"252 Heyward Street , Brooklyn, ,  New York ","252 Heyward Street , Brooklyn,  New York ",40.704518,-73.9513975
"254 East 184 Street, Bronx,  New York ","254 East 184 Street , Bronx,  New York ",40.8588799,-73.8980702
"256 South 4 Street , Brooklyn, ,  New York ","256 South 4 Street , Brooklyn,  New York ",40.7098501,-73.9578638
"258-60 West 117th Street ,Manhattan,  New York ","258-60 West 117th Street , Manhattan,  New York ",40.8043902,-73.953777
"26 Havemeyer Street , Brooklyn, ,  New York ","26 Havemeyer Street , Brooklyn,  New York ",40.7158202,-73.9537911
"26 St Nicohlas Ave , Brooklyn, ,  New York ","26 St Nicohlas Ave , Brooklyn,  New York ",40.7073693,-73.9217604
"260 Marcus Garvey Blvd Brooklyn, NY 11221
",260 Marcus HDFC ,-73.994396,-73.9394028
"263 Devoe Street , Brooklyn, ,  New York ","263 Devoe Street , Brooklyn,  New York ",-73.9392198,-73.9392198
"263 South 2nd Street , Brooklyn, ,  New York ","263 South 2nd Street , Brooklyn,  New York ",-73.9570525,-73.9570525
"265 Hawthorne St , Brooklyn, ,  New York ","265 Hawthorne St , Brooklyn,  New York ",-73.9516509,-73.9516509
"265 Lee Avenue , Brooklyn, ,  New York ","265 Lee Avenue , Brooklyn,  New York ",-73.9535015,-73.9535015
"2665 Decatur Avenue, Bronx,  New York ","2665 Decatur Avenue , Bronx,  New York ",40.8645094,-73.889569
"2670 Valentine Avenue, Bronx,  New York ","2670 Valentine Avenue , Bronx,  New York ",40.8657978,-73.8928048
"2674 Valentine Avenue, Bronx,  New York ","2674 Valentine Avenue , Bronx,  New York ",40.8660193,-73.8926975
"2676 Decatur Avenue, Bronx,  New York ","2676 Decatur Avenue , Bronx,  New York ",40.8645728,-73.888881
"268 East 181 Street, Bronx,  New York ","268 East 181 Street , Bronx,  New York ",40.854042,-73.8995798
"268 East 4 St ,Manhattan,  New York ","268 East 4 St , Manhattan,  New York ",40.7226961,-73.9814658
"269 West 153 St ,Manhattan,   New York ","269 West 153 St , Manhattan,   New York ",40.8278393,-73.9376124
"2698 Valentine, Bronx,  New York ","2698 Valentine , Bronx,  New York ",40.8665206,-73.8923975
"27 West 84 St ,Manhattan,  New York ","27 West 84 St , Manhattan,  New York ",40.7847748,-73.9716269
"270 Convent Avenue ,Manhattan,  New York ","270 Convent Avenue , Manhattan,  New York ",40.8221036,-73.9484164
"270 East 162 St, Bronx,  New York ","270 East 162 St , Bronx,  New York ",40.826333,-73.917704
"270 St Nicholas Ave ,Manhattan,  New York ","270 St Nicholas Ave , Manhattan,  New York ",40.8097628,-73.9526519
"272 Alexander Ave, Bronx,  New York ","272 Alexander Ave , Bronx,  New York ",40.8104701,-73.924519
"272 Gates Ave , Brooklyn, ,  New York ","272 Gates Ave , Brooklyn,  New York ",40.6853418,-73.9560334
"272 St James Place , Brooklyn, ,  New York ","272 St James Place , Brooklyn,  New York ",40.6821443,-73.9636744
"272-4 South 5 Street , Brooklyn, ,  New York ","272-4 South 5 Street , Brooklyn,  New York ",40.7092601,-73.9584657
"2728 Broadway ,Manhattan,  New York ","2728 Broadway , Manhattan,  New York ",40.7999448,-73.9674866
"273-77 Grand Street , Brooklyn, ,  New York ","273-77 Grand Street , Brooklyn,  New York ",40.7134358,-73.9578559
"274 East 194 Street, Bronx,  New York ","274 East 194 Street , Bronx,  New York ",40.8646498,-73.8924263
"274 East 7 St ,Manhattan,  New York ","274 East 7 St , Manhattan,  New York ",40.7231138,-73.9771693
"274-76 South 2 Street , Brooklyn, ,  New York ","274-76 South 2 Street , Brooklyn,  New York ",40.7111986,-73.9570805
"274-78 Nagle Avenue ,Manhattan,  New York ","274-78 Nagle Avenue , Manhattan,  New York ",40.8637408,-73.9196995
"277 Quincy Street , Brooklyn, ,  New York ","277 Quincy Street , Brooklyn,  New York ",40.6872893,-73.9496274
"2775-79 Eighth Ave ,Manhattan,  New York ","2775-79 Eighth Ave , Manhattan,  New York ",40.7509372,-73.9943613
"278 43 Street , Brooklyn, ,  New York ","278 43 Street , Brooklyn,  New York ",40.6518043,-74.0110182
"2789 VALENTINE AVENUE, Bronx,  New York ","2789 VALENTINE AVENUE , Bronx,  New York ",40.868481,-73.8910508
"279 Albany Ave , Brooklyn, ,  New York ","279 Albany Ave , Brooklyn,  New York ",40.671181,-73.938795
"28 Claver Place , Brooklyn, ,  New York ","28 Claver Place , Brooklyn,  New York ",40.6823007,-73.9578179
"28 St Nicholas Ave , Brooklyn, ,  New York ","28 St Nicholas Ave , Brooklyn,  New York ",40.7073273,-73.9216879
"280 Mott Street ,Manhattan,  New York ","280 Mott Street , Manhattan,  New York ",40.7241532,-73.9941366
"281 Classon Avenue , Brooklyn, ,  New York ","281 Classon Avenue , Brooklyn,  New York ",40.6913398,-73.9602797
"282,Manhattan,  Ave ,Manhattan,   New York ","282, Manhattan,  Ave , Manhattan,   New York ",40.8021873,-73.958594
"283-85 East 4 Street ,Manhattan,  New York ","283-85 East 4 Street , Manhattan,  New York ",40.7228301,-73.9807302
"283-89 Parkside Avenue , Brooklyn, ,  New York ","283-89 Parkside Avenue , Brooklyn,  New York ",40.6560176,-73.958452
"286 West 151 St ,Manhattan,  New York ","286 West 151 St , Manhattan,  New York ",40.8260295,-73.9382322
"29-33 Convent Ave ,Manhattan,  New York ","29-33 Convent Ave , Manhattan,  New York ",40.8139049,-73.952899
"29-35 West 119 St ,Manhattan,  New York ","29-35 West 119 St , Manhattan,  New York ",40.8032269,-73.9459753
"290 East 2 St ,Manhattan,  New York ","290 East 2 St , Manhattan,  New York ",40.7205477,-73.9795626
"295-97 Stanhope Street , Brooklyn, ,  New York ","295-97 Stanhope Street , Brooklyn,  New York ",40.7023889,-73.9190123
"298 East 3 St ,Manhattan,  New York ","298 East 3 St , Manhattan,  New York ",40.7210318,-73.9795916
"30 Macombs Place ,Manhattan,  New York ","30 Macombs Place , Manhattan,  New York ",40.8260398,-73.938723
"30 West 119 Street ,Manhattan,  New York ","30 West 119 Street , Manhattan,  New York ",40.8029758,-73.9463839
"300-302 East 119 St ,Manhattan,  New York ","300-302 East 119 St , Manhattan,  New York ",40.7987328,-73.9362535
"301 West 136 St Block Assoc,Manhattan,  New York ","301 West 136 St Block Assoc, Manhattan,  New York ",40.8173688,-73.9467949
"302 Convent Avenue ,Manhattan,  New York ","302 Convent Avenue , Manhattan,  New York ",40.8230116,-73.9476925
"303 West 122 Street ,Manhattan,  New York ","303 West 122 Street , Manhattan,  New York ",40.8088388,-73.953203
"303-05 East 8 St , Brooklyn, ,  New York ","303-05 East 8 St , Brooklyn,  New York ",40.642577,-73.971221
"304 South 3 Street , Brooklyn, ,  New York ","304 South 3 Street , Brooklyn,  New York ",40.7096304,-73.9551862
"304-06 East 8 St , Brooklyn, ,  New York ","304-06 East 8 St , Brooklyn,  New York ",40.6426453,-73.9716535
"305 East 171 Street, Bronx,  New York ","305 East 171 Street , Bronx,  New York ",40.8387358,-73.9095644
"307 West 107 Street ,Manhattan,  New York ","307 West 107 Street , Manhattan,  New York ",40.8027492,-73.9686377
"307 West 111 St ,Manhattan,  New York ","307 West 111 St , Manhattan,  New York ",40.8017078,-73.9582925
"307 West 153 Street ,Manhattan,   New York ","307 West 153 Street , Manhattan,   New York ",40.8283292,-73.9389499
"308 East 120 St ,Manhattan,   New York ","308 East 120 St , Manhattan,   New York ",40.7991333,-73.9354733
"309-13 East Houston St ,Manhattan,  New York ","309-13 East Houston St , Manhattan,  New York ",40.7210973,-73.983485
"31 Kingsland Avenue , Brooklyn, ,  New York ","31 Kingsland Avenue , Brooklyn,  New York ",40.7172321,-73.9405204
"31 Patchen Avenue , Brooklyn, ,  New York ","31 Patchen Avenue , Brooklyn,  New York ",40.691331,-73.9274958
"310 East 4 St ,Manhattan,  New York ","310 East 4 St , Manhattan,  New York ",40.7218604,-73.9797862
"310-12 West 122 St ,Manhattan,  New York ","310-12 West 122 St , Manhattan,  New York ",40.8084959,-73.9536939
"311-13 East 3 Street ,Manhattan,  New York ","311-13 East 3 Street , Manhattan,  New York ",40.7211026,-73.9789845
"3115 Broadway ,Manhattan,  New York ","3115 Broadway , Manhattan,  New York ",40.8131814,-73.9605982
"312 South 3 Street , Brooklyn, ,  New York ","312 South 3 Street , Brooklyn,  New York ",40.7095601,-73.9548828
"312 West 49th Street ,Manhattan,  New York ","312 West 49th Street , Manhattan,  New York ",40.7618798,-73.9876045
"313 Milford Street , Brooklyn, ,  New York ","313 Milford Street , Brooklyn,  New York ",40.6715135,-73.8760762
"314 Powers Street , Brooklyn, ,  New York ","314 Powers Street , Brooklyn,  New York ",40.7130668,-73.938054
"314-16-18 West 36th Street ,Manhattan,  New York ","314-16-18 West 36th Street , Manhattan,  New York ",40.7536699,-73.9934428
"316 West 112 Street ,Manhattan,  New York ","316 West 112 Street , Manhattan,  New York ",40.8022739,-73.9585252
"316 West 47 St ,Manhattan,  New York ","316 West 47 St , Manhattan,  New York ",40.7607201,-73.9885314
"317-19 East 3 St ,Manhattan,  New York ","317-19 East 3 St , Manhattan,  New York ",40.7211983,-73.9787559
"3175-77 Villa Avenue , Bronx,  New York ","3175-77 Villa Avenue , Bronx,  New York ",40.8764038,-73.887167
"318 Union Ave , Brooklyn,  New York ",318 Union Ave  Bloomingdale New Jersey ,41.0188275,-74.3109467
"318-320 East 151 St , Bronx,  New York ","318-320 East 151 St , Bronx,  New York ",40.8181043,-73.9201389
"319 Berriman Street , Brooklyn,  New York ","319 Berriman Street , Brooklyn,  New York ",40.6707355,-73.8787634
"319 West 47 Street , Manhattan,  New York ",319 West 47 Street   California ,34.0012858,-118.2791334
"32 Herkimer St , Brooklyn,  New York ",32 Herkimer St  Waterbury Connecticut ,41.5780371,-73.0437095
"32-34 East 2 Street , Manhattan,  New York ",32-34 East 2 Street  Hummelstown Pennsylvania ,40.2668242,-76.706494
"320 West 111 Street , Manhattan,  New York ","320 West 111 Street , Manhattan,  New York ",40.8016005,-73.9589176
"320 West 47 Street , Manhattan,  New York ","320 West 47 Street , Manhattan,  New York ",40.7607621,-73.988737
"320-22 West 53 Street , Manhattan,  New York ","320-22 West 53 Street , Manhattan,  New York ",40.7644678,-73.9857415
"321 Pleasant Ave , Manhattan,  New York ",321 Pleasant Ave  Michigan Township Indiana ,41.712535,-86.8735258
"321 St Nicholas Ave Apartments , Manhattan,  New York ",321 St Nicholas Ave Apartments  Worcester Massachusetts ,42.3038864,-71.775031
"322 West 47 Street , Manhattan,  New York ",322 West 47 Street   California ,34.0008604,-118.2792751
"322-26 West 17 Street , Manhattan,  New York ",322-26 West 17 Street   California ,36.778261,-119.4179324
"323 Pleasant Ave , Manhattan,  New York ",323 Pleasant Ave   Oregon ,45.3482003,-122.5967934
"323 West 43 Street , Manhattan,  New York ","323 West 43 Street , Manhattan,  New York ",40.7585686,-73.9903258
"323-25 Bedford Avenue , Brooklyn,  New York ","323-25 Bedford Avenue , Brooklyn,  New York ",40.7128572,-73.962204
"323-29 Edgecombe Ave , Manhattan,  New York ","323-29 Edgecombe Ave , Manhattan,  New York ",40.8257707,-73.9425721
"325 West 43rd Street , Manhattan,  New York ","325 West 43rd Street , Manhattan,  New York ",40.758617,-73.990377
"325-327 Pleasant Ave , Manhattan,  New York ",325-327 Pleasant Ave  Oneida New York ,43.0930871,-75.6487323
"326 West 45 Street , Manhattan,  New York ","326 West 45 Street , Manhattan,  New York ",40.7595776,-73.9896632
"327 East 3 Street , Manhattan,  New York ",327 East 3 Street  Black Township Indiana ,37.9322475,-87.8920142
"327 Lenox Avenue , Manhattan,  New York ",327 Lenox Avenue   California ,36.778261,-119.4179324
"327 Putnam Avenue , Brooklyn,  New York ","327 Putnam Avenue , Brooklyn,  New York ",40.6844012,-73.9485877
"3279-81 Hull Avenue , Bronx,  New York ","3279-81 Hull Avenue , Bronx,  New York ",40.8763387,-73.8749238
"330 East 139 St , Bronx,  New York ","330 East 139 St , Bronx,  New York ",40.8104899,-73.9244218
"330-32 South 3 Street , Brooklyn,  New York ",330-32 South 3 Street   Florida ,27.7583278,-82.6769042
"333-35 East 209 Street , Bronx,  New York ","333-35 East 209 Street , Bronx,  New York ",40.876824,-73.874062
"34 Jefferson Ave, Brooklyn,  New York ",34 Jefferson Ave Bedford-Stuyvesant New York ,40.6824706,-73.9561267
"340, Manhattan,  Avenue , Manhattan,  New York ","340, Manhattan,  Avenue   California ",33.8563561,-118.3972095
"340 South 3rd St , Brooklyn,  New York ",340 South 3rd St   California ,37.3258341,-121.8800295
"340 St Marks Avenue , Brooklyn,  New York ","340 St Marks Avenue , Brooklyn,  New York ",40.6775827,-73.9644314
"3405-7 Broadway , Manhattan,  New York ",3405-7 Broadway   California ,36.778261,-119.4179324
"341 South 5 Street , Brooklyn,  New York ",341 South 5 Street   California ,37.3293736,-121.879783
"342 East 100 St , Manhattan,  New York ","342 East 100 St , Manhattan,  New York ",40.7858559,-73.9432134
"342 East 139 St , Bronx,  New York ","342 East 139 St , Bronx,  New York ",40.8103187,-73.9241587
"342 West 48 Street , Manhattan,  New York ","342 West 48 Street , Manhattan,  New York ",40.7616212,-73.9889258
"343-45 Bedford Avenue , Brooklyn,  New York ",343-45 Bedford Avenue  Staten Island New York ,40.5776116,-74.0992705
"344 South 3 St , Brooklyn,  New York ",344 South 3 St  Coopersburg Pennsylvania ,40.5058898,-75.3871694
"344 West 48 Street , Manhattan,  New York ","344 West 48 Street , Manhattan,  New York ",40.7616631,-73.989001
"345 Third Street , Brooklyn,  New York ",345 Third Street  Albany New York ,42.6664463,-73.7650546
"346 South 3 St , Brooklyn,  New York ",346 South 3 St  Hamilton Ohio ,39.3962614,-84.5615842
"346 West 48 Street , Manhattan,  New York ","346 West 48 Street , Manhattan,  New York ",40.7616947,-73.9890805
"348 East 10 Street , Manhattan,  New York ",348 East 10 Street   Florida ,28.6655405,-81.503598
"348-50 West 48 Street , Manhattan,  New York ",348-50 West 48 Street   California ,33.9989549,-118.2800848
"3485 Broadway , Manhattan,  New York ",3485 Broadway   Arizona ,34.0489281,-111.0937311
"35 Crown Street , Brooklyn,  New York ",35 Crown Street  Hartford Connecticut ,41.7438831,-72.6842714
"35 Kingsland Avenue , Brooklyn,  New York ",35 Kingsland Avenue  Wallingford Connecticut ,41.4485932,-72.7969423
"35 Mt Morris Park West , Manhattan,  New York ","35 Mt Morris Park West , Manhattan,  New York ",40.8062346,-73.9446611
"350-52 South 4th Street , Brooklyn,  New York ",350-52 South 4th Street  Coshocton Ohio ,40.2696407,-81.8652085
"352 W 115 St/8 MSN , Manhattan,  New York ",352 W 115 St/8 MSN  Chicago Illinois ,41.6854686,-87.632075
"352-54 West 48 Street , Manhattan,  New York ","352-54 West 48 Street , Manhattan,  New York ",40.7617877,-73.98932
"353 West 117 Street , Manhattan,  New York ",353 West 117 Street  Chicago Illinois ,41.6813581,-87.6319993
"353 West 47th Street , Manhattan,  New York ","353 West 47th Street , Manhattan,  New York ",40.7615397,-73.9895963
"354 South 3 St , Brooklyn,  New York ",354 South 3 St   Oregon ,42.0109008,-89.3317892
"354 South 4 Street , Brooklyn,  New York ",354 South 4 Street   Oregon ,43.8041334,-120.5542012
"36 Convent Avenue , Manhattan,  New York ","36 Convent Avenue , Manhattan,  New York ",40.8142848,-73.9534096
"36-38 Hawthorne St , Brooklyn,  New York ",36-38 Hawthorne St  Manchester Connecticut ,41.7839551,-72.5298968
"36-40 West 138 St , Manhattan,  New York ","36-40 West 138 St , Manhattan,  New York ",40.8153009,-73.9380717
"36-44 Attorney St , Manhattan,  New York ","36-44 Attorney St , Manhattan,  New York ",40.7164447,-73.9853653
"3603 Broadway , Manhattan,  New York ",3603 Broadway   California ,36.778261,-119.4179324
"361 West 121 Street , Manhattan,  New York ","361 West 121 Street , Manhattan,  New York ",40.8087625,-73.955528
"363 West 116 St , Manhattan,  New York ","363 West 116 St , Manhattan,  New York ",40.8054237,-73.957159
"364 West 121 St , Manhattan,  New York ","364 West 121 St , Manhattan,  New York ",40.8086069,-73.9556439
"367-69 East 10 Street , Manhattan,  New York ",367-69 East 10 Street  Fond Du Lac Wisconsin ,43.7683129,-88.4328581
"3681 Broadway , Manhattan,  New York ","3681 Broadway , Manhattan,  New York ",40.8314514,-73.9474169
"3692 Broadway , Manhattan,  New York ","3692 Broadway , Manhattan,  New York ",40.8310622,-73.9466182
"37 Kingsland Avenue , Brooklyn,  New York ",37 Kingsland Avenue  Wallingford Connecticut ,41.4484738,-72.7966962
37-12 Astoria Blvd  Astoria New York ,37-12 Astoria Blvd  Astoria New York ,40.7737651,-73.9295067
"370 Hooper Street , Brooklyn,  New York ","370 Hooper Street , Brooklyn,  New York ",40.7091331,-73.9524936
"371 Edgecombe Avenue , Manhattan,  New York ","371 Edgecombe Avenue , Manhattan,  New York ",40.827983,-73.9410567
"372 Hooper Street , Brooklyn,  New York ","372 Hooper Street , Brooklyn,  New York ",40.7092504,-73.9524136
"373 Grand Avenue , Brooklyn,  New York ","373 Grand Avenue , Brooklyn,  New York ",40.684621,-73.9618011
"374 West 127 St , Manhattan,  New York ","374 West 127 St , Manhattan,  New York ",40.8123799,-73.9528241
"374-76 South 2 St , Brooklyn,  New York ",374-76 South 2 St   Arizona ,34.0489281,-111.0937311
"375 New York , Brooklyn,  New York ",375 New York  Greene Township Pennsylvania ,39.940719,-77.5390127
"376 Keap St , Brooklyn,  New York ","376 Keap St , Brooklyn,  New York ",40.7099016,-73.9537983
"377 E 10 Street , Manhattan,  New York ",377 E 10 Street  Fond Du Lac Wisconsin ,43.768302,-88.4324833
"379 Hancock Street , Brooklyn,  New York ",379 Hancock Street  Islip New York ,40.7898176,-73.2476295
"38 Downing Street , Brooklyn,  New York ",38 Downing Street   California ,35.1712846,-117.7669005
"38-40 West 128 Street , Manhattan,  New York ","38-40 West 128 Street , Manhattan,  New York ",40.808847,-73.94267
"3810 Broadway , Manhattan,  New York ",3810 Broadway   Texas ,31.9685988,-99.9018131
"384-86 Keap Street , Brooklyn,  New York ","384-86 Keap Street , Brooklyn,  New York ",40.7103884,-73.9535015
"386 Second Street , Brooklyn,  New York ",386 Second Street   California ,36.778261,-119.4179324
"388 Halsey Street , Brooklyn,  New York ","388 Halsey Street , Brooklyn,  New York ",40.6829103,-73.9385757
"389 East 194 Street , Bronx,  New York ","389 East 194 Street , Bronx,  New York ",40.8634006,-73.8895989
"392 Marcy Avenue , Brooklyn,  New York ",392 Marcy Avenue   New Mexico ,36.9075629,-104.4359421
"392 South 5 Street , Brooklyn,  New York ","392 South 5 Street , Brooklyn,  New York ",40.7074945,-73.9534588
"394 Jefferson Avenue , Brooklyn,  New York ",394 Jefferson Avenue   Tennessee ,36.1223198,-85.5075756
"4-6 West 105 Street , Manhattan,  New York ","4-6 West 105 Street , Manhattan,  New York ",40.7974306,-73.9612058
"40 Downing Street , Brooklyn,  New York ",40 Downing Street  Cherry Hill Township New Jersey ,39.8859101,-74.9318008
"40 Tiemann Place , Manhattan,  New York ","40 Tiemann Place , Manhattan,  New York ",40.8151564,-73.9592071
"400 Convent Ave , Manhattan,  New York ","400 Convent Ave , Manhattan,  New York ",40.8262597,-73.9454653
"400 West 148 Street , Manhattan,  New York ","400 West 148 Street , Manhattan,  New York ",40.8260231,-73.9437388
"400 West 151 St , Manhattan,  New York ","400 West 151 St , Manhattan,  New York ",40.8280723,-73.9428553
"400 West 152 St , Manhattan,  New York ","400 West 152 St , Manhattan,  New York ",40.8284992,-73.9419752
"401 West 152 Street , Manhattan,  New York ",401 West 152 Street   Texas ,31.9685988,-99.9018131
"404 West 48 Street , Manhattan,  New York ","404 West 48 Street , Manhattan,  New York ",40.7622703,-73.9905003
"405 West 48 Street , Manhattan,  New York ","405 West 48 Street , Manhattan,  New York ",40.7626923,-73.99031
"406 West 47 Street , Manhattan,  New York ",406 West 47 Street   Arkansas ,34.7973794,-92.2707717
"407-9 Keap Street , Brooklyn,  New York ","407-9 Keap Street , Brooklyn,  New York ",40.7110999,-73.9535517
"409 Edgecombe Avenue , Manhattan,  New York ","409 Edgecombe Avenue , Manhattan,  New York ",40.8294127,-73.9400005
"411 Chauncey , Brooklyn,  New York ","411 Chauncey , Brooklyn,  New York ",40.6819262,-73.9180158
"413 West 48 Street , Manhattan,  New York ","413 West 48 Street , Manhattan,  New York ",40.7627671,-73.9905641
"414 61st Street , Brooklyn,  New York ",414 61st Street   Iowa ,41.5842525,-90.5946464
"414 East 134 St , Bronx,  New York ","414 East 134 St , Bronx,  New York ",40.8061122,-73.9240866
"414 W 146 ST , Manhattan,  New York ","414 W 146 ST , Manhattan,  New York ",40.8249217,-73.9452779
"415 East 12 Street , Manhattan,  New York ",415 East 12 Street   California ,34.03545,-118.25582
"416 West 129 St , Manhattan,  New York ","416 West 129 St , Manhattan,  New York ",40.8137941,-73.9523994
"416-18 East 10 St , Manhattan,  New York ",416-18 East 10 St   Texas ,31.9685988,-99.9018131
"418 West 46 St , Manhattan,  New York ",418 West 46 St   Florida ,27.6648274,-81.5157535
"418-20 West 129 St , Manhattan,  New York ","418-20 West 129 St , Manhattan,  New York ",40.8138587,-73.9525831
"419 East 157 St , Bronx,  New York ","419 East 157 St , Bronx,  New York ",40.8216391,-73.9142587
"419-27 West 147 Street , Manhattan,  New York ","419-27 West 147 Street , Manhattan,  New York ",40.8257898,-73.9443976
"42-46 West 138 St , Manhattan,  New York ","42-46 West 138 St , Manhattan,  New York ",40.8153522,-73.9384186
"420 Prospect Place , Brooklyn,  New York ",420 Prospect Place   Georgia ,32.1574351,-82.907123
"420-24 West 146 Street , Manhattan,  New York ","420-24 West 146 Street , Manhattan,  New York ",40.8250081,-73.9454858
"421 Crown Street , Brooklyn,  New York ",421 Crown Street   Texas ,31.9685988,-99.9018131
"424 East 115th Street , Manhattan,  New York ","424 East 115th Street , Manhattan,  New York ",40.7947764,-73.9350577
"425 East 153 Street , Bronx,  New York ","425 East 153 Street , Bronx,  New York ",40.8188258,-73.9154171
"426 East 149 Street , Bronx,  New York ","426 East 149 Street , Bronx,  New York ",40.8152422,-73.916626
"427 East 6 Street , Manhattan,  New York ",427 East 6 Street  New Richmond Wisconsin ,45.1172762,-92.5321282
"428 East 157 Street , Bronx,  New York ","428 East 157 Street , Bronx,  New York ",40.8210864,-73.9141668
"429 East 157 St , Bronx,  New York ","429 East 157 St , Bronx,  New York ",40.8214456,-73.9139831
"430 East 149 St , Bronx,  New York ","430 East 149 St , Bronx,  New York ",40.8152395,-73.9163523
"430 Lenox Ave , Manhattan,  New York ",430 Lenox Ave  Brookhaven New York ,40.772556,-72.9595525
"430 West 46 St , Manhattan,  New York ","430 West 46 St , Manhattan,  New York ",40.7615546,-73.9923686
"431 Sterling Place , Brooklyn,  New York ",431 Sterling Place  Ridgewood New Jersey ,40.9893725,-74.1050601
"431 West 121st Street , Manhattan,  New York ","431 West 121st Street , Manhattan,  New York ",40.8099742,-73.9583894
"433 WEST 48 STREET, Manhattan,  New York ",433 Pioneers    ,40.7630656,-73.9913892
"433 West 46 Street , Manhattan,  New York ",433 West 46 Street   California ,34.0021526,-118.281733
"434 West 49 Street , Manhattan,  New York ",434 West 49 Street   Georgia ,32.0490958,-81.1077742
"44 Downing Street , Brooklyn,  New York ","44 Downing Street , Brooklyn,  New York ",40.6843537,-73.9612252
"443-45 West 37 St , Manhattan,  New York ",443-45 West 37 St   California ,33.7105884,-118.2877072
"444 West 54 Street , Manhattan,  New York ","444 West 54 Street , Manhattan,  New York ",40.7666049,-73.9891097
"444 WEST 167 STREET, Manhattan,  New York ",444-451 Orange Buildings    ,40.8381546,-73.9365791
"445 16th Street , Brooklyn,  New York ",445 16th Street   Washington ,38.9002324,-77.036561
"446-48 East 13 St , Manhattan,  New York ",446-48 East 13 St   Georgia ,40.7297721,-73.9812626
"448-50 St Nicholas Avenue , Manhattan,  New York ","448-50 St Nicholas Avenue , Manhattan,  New York ",40.815182,-73.9485542
"45-53 West 110 St , Manhattan,  New York ",45-53 West 110 St  Chicago Illinois ,41.6941983,-87.6249534
"450 East 118 St , Manhattan,  New York ","450 East 118 St , Manhattan,  New York ",40.7964718,-73.9328346
"450 West 55 Street , Manhattan,  New York ","450 West 55 Street , Manhattan,  New York ",40.7673443,-73.9888763
"450-52 East 165 St , Bronx,  New York ","450-52 East 165 St , Bronx,  New York ",40.8269793,-73.9099292
"450/454 West 152 Street , Manhattan,  New York ","450/454 West 152 Street , Manhattan,  New York ",40.8288813,-73.9430949
"451 West 48 Street , Manhattan,  New York ",451 West 48 Street  Exeter Township Pennsylvania ,40.2968795,-75.857284
"452 Bedford Avenue , Brooklyn,  New York ","452 Bedford Avenue , Brooklyn,  New York ",40.7084449,-73.9643635
"452 West 50 Street , Manhattan,  New York ","452 West 50 Street , Manhattan,  New York ",40.7642902,-73.9913397
"453 West 54 Street , Manhattan,  New York ","453 West 54 Street , Manhattan,  New York ",40.7671724,-73.9896373
"455-9 West 35 Street , Manhattan,  New York ","455-9 West 35 Street , Manhattan,  New York ",40.7551046,-73.997894
"4554 Park Avenue , Bronx,  New York ","4554 Park Avenue , Bronx,  New York ",40.8558869,-73.894183
"458 West 57 Street , Manhattan,  New York ","458 West 57 Street , Manhattan,  New York ",40.7687838,-73.988442
"46-48 East 129 St Tenant Assoc, Manhattan,  New York ","46-48 East 129 St Tenant Assoc, Manhattan,  New York ",40.807916,-73.938513
"46-50 Rivington Street , Manhattan,  New York ","46-50 Rivington Street , Manhattan,  New York ",40.720998,-73.990802
"463 Classon Avenue , Brooklyn,  New York ","463 Classon Avenue , Brooklyn,  New York ",40.684831,-73.9590532
"463 East 178 Street , Bronx,  New York ","463 East 178 Street , Bronx,  New York ",40.8486881,-73.8978097
"463 West 166 St , Manhattan,  New York ",463 West 166 St   California ,33.8801237,-118.3265012
"464 West 152 Street , Manhattan,  New York ","464 West 152 Street , Manhattan,  New York ",40.8290823,-73.9435691
"464-68 West 51 Street , Manhattan,  New York ","464-68 West 51 Street , Manhattan,  New York ",40.7650077,-73.9909951
"465 Eastern Parkway , Brooklyn,  New York ","465 Eastern Parkway , Brooklyn,  New York ",40.6704759,-73.9526493
"465 W 166 St , Manhattan,  New York ","465 W 166 St , Manhattan,  New York ",40.8384209,-73.9372111
"465 West 46 Street , Manhattan,  New York ","465 West 46 Street , Manhattan,  New York ",40.7621493,-73.9930874
"467 West 166 St , Manhattan,  New York ","467 West 166 St , Manhattan,  New York ",40.8384546,-73.9372906
"468 Hancock Street , Brooklyn,  New York ",468 Hancock Street  Springfield Massachusetts ,42.0961985,-72.567281
"469 West 166 St , Manhattan,  New York ","469 West 166 St , Manhattan,  New York ",40.8385072,-73.9375665
"47-53 Ft Washington Ave , Manhattan,  New York ","47-53 Ft Washington Ave , Manhattan,  New York ",40.8370146,-73.9447133
"470 Convent Ave , Manhattan,  New York ","470 Convent Ave , Manhattan,  New York ",40.8282176,-73.9436513
"470 West 146 St , Manhattan,  New York ","470 West 146 St , Manhattan,  New York ",40.8255249,-73.9465786
"470 West 153 St , Manhattan,  New York ","470 West 153 St , Manhattan,  New York ",40.8300515,-73.9436743
"473 West 145th Street, Manhattan,  New York ",473 United   Kentucky ,37.8393332,-84.2700179
"477-79 Van Buren Street , Brooklyn,  New York ","477-79 Van Buren Street , Brooklyn,  New York ",40.6917577,-73.9294099
"48-50 West 119 St , Manhattan,  New York ","48-50 West 119 St , Manhattan,  New York ",40.8030948,-73.9467419
"481 Van Buren Street , Brooklyn,  New York ","481 Van Buren Street , Brooklyn,  New York ",40.6918899,-73.9292302
"482 West 150 St , Manhattan,  New York ","482 West 150 St , Manhattan,  New York ",40.8282149,-73.9450817
"484 Convent Ave , Manhattan,  New York ","484 Convent Ave , Manhattan,  New York ",40.8286135,-73.9430585
"484 West 165 St , Manhattan,  New York ","484 West 165 St , Manhattan,  New York ",40.83756,-73.938066
"486 Amsterdam Avenue , Manhattan,  New York ","486 Amsterdam Avenue , Manhattan,  New York ",40.7861494,-73.9765209
"486 St Nicholas Avenue , Manhattan,  New York ","486 St Nicholas Avenue , Manhattan,  New York ",40.8165656,-73.9480369
"487-89 Amsterdam Avenue , Manhattan,  New York ",487-89 Amsterdam Avenue   New Jersey ,40.6536556,-74.2777254
"49 Tenants Unity Assoc. , Brooklyn,  New York ",49 Tenants Unity Assoc.    ,40.6936146,-73.9305357
"490 East 181 Street , Bronx,  New York ","490 East 181 Street , Bronx,  New York ",40.851887,-73.8946046
"490-2 Amsterdam Avenue , Manhattan,  New York ","490-2 Amsterdam Avenue , Manhattan,  New York ",40.7566607,-73.9973335
"492 Convent Avenue , Manhattan,  New York ","492 Convent Avenue , Manhattan,  New York ",40.828758,-73.9427099
"494 Jefferson Ave , Brooklyn,  New York ","494 Jefferson Ave , Brooklyn,  New York ",40.6844635,-73.9380449
"495 East 178 Street , Bronx,  New York ","495 East 178 Street , Bronx,  New York ",40.8482507,-73.896621
"498 Pennsylvania Avenue , Brooklyn,  New York ","498 Pennsylvania Avenue , Brooklyn,  New York ",40.6650723,-73.894508
"498 West 133 St , Manhattan,  New York ","498 West 133 St , Manhattan,  New York ",40.817417,-73.9529775
"499 West 130 St , Manhattan,  New York ","499 West 130 St , Manhattan,  New York ",40.815703,-73.954145
"499 West 158 St , Manhattan,  New York ","499 West 158 St , Manhattan,  New York ",40.8335135,-73.9411945
"50 West 106 Street , Manhattan,  New York ","50 West 106 Street , Manhattan,  New York ",40.7985989,-73.9618588
"50 West 112 Street , Manhattan,  New York ",50 West 112 Street  Chicago Illinois ,41.6909847,-87.6250232
"500 West 145 Street , Manhattan,  New York ","500 West 145 Street , Manhattan,  New York ",40.8252499,-73.94801
"500 West 173 Street , Manhattan,  New York ","500 West 173 Street , Manhattan,  New York ",40.8429645,-73.9350719
"500 West 174 Street , Manhattan,  New York ","500 West 174 Street , Manhattan,  New York ",40.8435754,-73.9345895
"501 West 143 Street , Manhattan,  New York ",501 West 143 Street  North Township Indiana ,41.6355467,-87.4764232
"501 West 156 Street , Manhattan,  New York ","501 West 156 Street , Manhattan,  New York ",40.8325324,-73.9427246
"503 West 170 Street , Manhattan,  New York ","503 West 170 Street , Manhattan,  New York ",40.8415134,-73.9364525
"503-05 West 111 Street , Manhattan,  New York ","503-05 West 111 Street , Manhattan,  New York ",40.8040169,-73.9637875
"503-05 West 141 Street , Manhattan,  New York ","503-05 West 141 Street , Manhattan,  New York ",40.8230911,-73.9500115
"504 West 135 St , Manhattan,  New York ","504 West 135 St , Manhattan,  New York ",40.8189804,-73.9530889
"504 West 48 Street , Manhattan,  New York ",504 West 48 Street   Georgia ,32.050421,-81.108705
"504-6 West 139 Street , Manhattan,  New York ","504-6 West 139 Street , Manhattan,  New York ",40.8215069,-73.9510677
"505 West 143 Street , Manhattan,  New York ","505 West 143 Street , Manhattan,  New York ",40.8244716,-73.9492597
"506 Ninth Ave , Manhattan,  New York ",506 Ninth Ave   South Carolina ,33.836081,-81.1637245
"506 West 145 Street , Manhattan,  New York ","506 West 145 Street , Manhattan,  New York ",40.825299,-73.9484287
"507 West 140 St , Manhattan,  New York ",507 West 140 St  North Township Indiana ,41.6405223,-87.476566
"507-15 West 172 St , Manhattan,  New York ","507-15 West 172 St , Manhattan,  New York ",40.8427728,-73.9356923
"507-9 President Street , Brooklyn,  New York ","507-9 President Street , Brooklyn,  New York ",40.678066,-73.986232
"508 West 139 Street , Manhattan,  New York ","508 West 139 Street , Manhattan,  New York ",40.8216697,-73.9513512
"509 West 140 Street , Manhattan,  New York ","509 West 140 Street , Manhattan,  New York ",40.8225932,-73.9506155
"509 West 142nd Street , Manhattan,  New York ","509 West 142nd Street , Manhattan,  New York ",40.8239374,-73.9499295
"509 West 160 Street , Manhattan,  New York ",509 West 160 Street   California ,33.8865424,-118.2832406
"51 Clifton Place , Brooklyn,  New York ",51 Clifton Place  Brookhaven New York ,40.9301216,-73.0547332
"51 West 106 St , Manhattan,  New York ","51 West 106 St , Manhattan,  New York ",40.798921,-73.961553
"510 West 151 Street , Manhattan,  New York ",510 West 151 Street  North Township Indiana ,41.6214657,-87.4767107
"510 West 172 St , Manhattan,  New York ",510 West 172 St  Thornton Township Illinois ,41.5830489,-87.6291462
"511 Park Place , Brooklyn,  New York ",511 Park Place  Newton Kansas ,38.0478988,-97.3563612
"511 Van Siclen Ave , Brooklyn,  New York ","511 Van Siclen Ave , Brooklyn,  New York ",40.6669395,-73.8885385
"511-15 West 138 St , Manhattan,  New York ","511-15 West 138 St , Manhattan,  New York ",40.8213366,-73.9515221
"512 East 11 Street , Manhattan,  New York ",512 East 11 Street   Texas ,34.641961,-102.7126593
"512 West 156 St , Manhattan,  New York ","512 West 156 St , Manhattan,  New York ",40.8323885,-73.9433069
"513 West 145 St , Manhattan,  New York ","513 West 145 St , Manhattan,  New York ",40.8258704,-73.948405
"513-15 West 157 St , Manhattan,  New York ",513-15 West 157 St   California ,33.8893346,-118.2835548
"513-15-17 West 135 St , Manhattan,  New York ","513-15-17 West 135 St , Manhattan,  New York ",40.8195675,-73.9531208
"514 East 13 St , Manhattan,  New York ",514 East 13 St  Yankton South Dakota ,42.8819042,-97.3847076
"514 West 149 St , Manhattan,  New York ",514 West 149 St   California ,33.8971151,-118.2837897
"514 West 50 St , Manhattan,  New York ",514 West 50 St   Florida ,25.8261709,-80.1271504
"515 West 143 St , Manhattan,  New York ","515 West 143 St , Manhattan,  New York ",40.8246695,-73.9497211
"515 West 151 Street , Manhattan,  New York ","515 West 151 Street , Manhattan,  New York ",40.829525,-73.9454605
"517 West 184 Street , Manhattan,  New York ","517 West 184 Street , Manhattan,  New York ",40.850471,-73.9305612
"517 West 48 Street , Manhattan,  New York ",517 West 48 Street   Georgia ,32.050372,-81.1093674
"517-19 West 144 St , Manhattan,  New York ",517-19 West 144 St  North Township Indiana ,41.6337589,-87.4771276
"518 West 134 St , Manhattan,  New York ","518 West 134 St , Manhattan,  New York ",40.818652,-73.954326
"518 West 135 St , Manhattan,  New York ","518 West 135 St , Manhattan,  New York ",40.8194001,-73.9540699
"519 West 151 Street , Manhattan,  New York ","519 West 151 Street , Manhattan,  New York ",40.8296086,-73.9456649
"519-21 West 160 Street , Manhattan,  New York ","519-21 West 160 Street , Manhattan,  New York ",40.8354286,-73.9416537
"520 West 134th Street , Manhattan,  New York ","520 West 134th Street , Manhattan,  New York ",40.818709,-73.954464
"520 West 144 Street , Manhattan,  New York ",520 West 144 Street  North Township Indiana ,41.6341278,-87.4772088
"520 West 158 Street , Manhattan,  New York ","520 West 158 Street , Manhattan,  New York ",40.8338091,-73.9428226
"521 East 6 Street , Manhattan,  New York ",521 East 6 Street   California ,34.0377517,-118.2144181
"521 West 135 St , Manhattan,  New York ","521 West 135 St , Manhattan,  New York ",40.819781,-73.9536271
"521 West 151 Street , Manhattan,  New York ","521 West 151 Street , Manhattan,  New York ",40.829652,-73.9457707
"522 West 151 St , Manhattan,  New York ","522 West 151 St , Manhattan,  New York ",40.8295103,-73.9465005
"522 West 152 Street , Manhattan,  New York ","522 West 152 Street , Manhattan,  New York ",40.82998,-73.9456917
"523 East 5 St , Manhattan,  New York ",523 East 5 St   Iowa ,41.8780025,-93.097702
"523 West 151 St , Manhattan,  New York ","523 West 151 St , Manhattan,  New York ",40.8297046,-73.945893
"523-25 West 152 Street , Manhattan,  New York ","523-25 West 152 Street , Manhattan,  New York ",40.8302696,-73.945535
"523-27 West 143 Street , Manhattan,  New York ",523-27 West 143 Street  North Township Indiana ,41.6355499,-87.4773959
"524 East 6th Street , Manhattan,  New York ",524 East 6th Street   Florida ,30.3421662,-81.6460196
"524 West 151 St , Manhattan,  New York ",524 West 151 St  North Township Indiana ,41.6215134,-87.4773297
"524 West 152 St , Manhattan,  New York ","524 West 152 St , Manhattan,  New York ",40.8300402,-73.9458228
"525 East 6 Street , Manhattan,  New York ",525 East 6 Street   Texas ,26.1555432,-97.980554
"525 West 134 St , Manhattan,  New York ","525 West 134 St , Manhattan,  New York ",40.8192079,-73.9544758
"525 West 138 Street , Manhattan,  New York ","525 West 138 Street , Manhattan,  New York ",40.821571,-73.9520398
"525 West 151 St , Manhattan,  New York ","525 West 151 St , Manhattan,  New York ",40.8297748,-73.946018
"526 West 158 Street , Manhattan,  New York ","526 West 158 Street , Manhattan,  New York ",40.833945,-73.9432359
"527 West 151 St , Manhattan,  New York ","527 West 151 St , Manhattan,  New York ",40.8298057,-73.9461931
"527 West 160 Street , Manhattan,  New York ","527 West 160 Street , Manhattan,  New York ",40.8355091,-73.9419715
"528 East 11 Street , Manhattan,  New York ",528 East 11 Street  Erie Pennsylvania ,42.129083,-80.0700968
"529 Marcy , Brooklyn,  New York ","529 Marcy , Brooklyn,  New York ",40.6972164,-73.9493507
"529 West 152 Street , Manhattan,  New York ","529 West 152 Street , Manhattan,  New York ",40.8304491,-73.9457273
"53 Stanton Street , Manhattan,  New York ","53 Stanton Street , Manhattan,  New York ",40.7218879,-73.9904178
"530 East 159 St , Bronx,  New York ","530 East 159 St , Bronx,  New York ",40.8212571,-73.9104423
"530, Manhattan,  Avenue , Manhattan,  New York ","530, Manhattan,  Avenue  Babylon New York ",40.718285,-73.335542
"530 West 153 Street , Manhattan,  New York ","530 West 153 Street , Manhattan,  New York ",40.8307704,-73.9456163
"533 East 6 Street , Manhattan,  New York ",533 East 6 Street   Florida ,30.3426652,-81.6491022
"533 West 145 Street , Manhattan,  New York ","533 West 145 Street , Manhattan,  New York ",40.8262441,-73.9492911
"534 East 11 Street , Manhattan,  New York ",534 East 11 Street   Texas ,33.583311,-96.1737212
"534 Graham Avenue , Brooklyn,  New York ","534 Graham Avenue , Brooklyn,  New York ",40.7211838,-73.9466752
"534 Ninth Ave , Manhattan,  New York ",534 Ninth Ave   Alaska ,63.588753,-154.4930619
"534 West 153 Street , Manhattan,  New York ","534 West 153 Street , Manhattan,  New York ",40.8308213,-73.9457347
"534 West 46 Street , Manhattan,  New York ",534 West 46 Street  Chicago Illinois ,41.8110019,-87.6397018
"534-6 West 152 Street , Manhattan,  New York ","534-6 West 152 Street , Manhattan,  New York ",40.8303311,-73.9464663
"535 East 6 Street , Manhattan,  New York ",535 East 6 Street   Colorado ,39.5500507,-105.7820674
"535-37 West 160 St , Manhattan,  New York ",535-37 West 160 St   California ,36.778261,-119.4179324
"535-7 West 163rd Street , Manhattan,  New York ","535-7 West 163rd Street , Manhattan,  New York ",40.8375103,-73.9407123
"536-38 West 163 St , Manhattan,  New York ","536-38 West 163 St , Manhattan,  New York ",40.8371613,-73.9411026
"537 East 6 Street , Manhattan,  New York ",537 East 6 Street   Texas ,26.1555432,-97.980554
"537 West 133 St , Manhattan,  New York ","537 West 133 St , Manhattan,  New York ",40.8183384,-73.9545947
"537 West 144 St , Manhattan,  New York ","537 West 144 St , Manhattan,  New York ",40.8253122,-73.9493686
"539 West 160 Street , Manhattan,  New York ","539 West 160 Street , Manhattan,  New York ",40.8356809,-73.9423425
"540 West 146 St , Manhattan,  New York ","540 West 146 St , Manhattan,  New York ",40.8264563,-73.9489633
"540-550 West 144 St , Manhattan,  New York ","540-550 West 144 St , Manhattan,  New York ",40.8251786,-73.9500735
"540-550 West 144 St , Manhattan,  New York ","540-550 West 144 St , Manhattan,  New York ",40.8251786,-73.9500735
"541-43 West 133 St , Manhattan,  New York ","541-43 West 133 St , Manhattan,  New York ",40.818492,-73.954694
"543 Graham Avenue , Brooklyn,  New York ","543 Graham Avenue , Brooklyn,  New York ",40.7217162,-73.9473068
"543-45 West 160 Street , Manhattan,  New York ","543-45 West 160 Street , Manhattan,  New York ",40.8357123,-73.9425447
"544 West 156 St , Manhattan,  New York ","544 West 156 St , Manhattan,  New York ",40.8326291,-73.9438465
"544 West 157 St , Manhattan,  New York ",544 West 157 St   California ,33.8889364,-118.2844065
"545 Warren Street , Brooklyn,  New York ",545 Warren Street  Hudson New York ,42.248333,-73.785357
"546 West 156 Street , Manhattan,  New York ","546 West 156 Street , Manhattan,  New York ",40.8326989,-73.9441335
"547 Southern Boulevard , Bronx,  New York ","547 Southern Boulevard , Bronx,  New York ",40.8125449,-73.9037624
"547 West 147 Street , Manhattan,  New York ","547 West 147 Street , Manhattan,  New York ",40.8276038,-73.9486798
"547-49 East 12 Street , Manhattan,  New York ",547-49 East 12 Street   California ,34.0346565,-118.2543258
"549 West 163 St , Manhattan,  New York ","549 West 163 St , Manhattan,  New York ",40.8376827,-73.9413544
"55 Avenue C , Manhattan,  New York ",55 Avenue C  Malta New York ,42.9853893,-73.7868672
"55 West 119 St , Manhattan,  New York ","55 West 119 St , Manhattan,  New York ",40.8035085,-73.9466712
"55-55 1/2 Downing Street , Manhattan,  New York ",55-55 1/2 Downing Street  West Village New York ,40.7297248,-74.0025982
"550 Ft Washington Avenue , Manhattan,  New York ","550 Ft Washington Avenue , Manhattan,  New York ",40.8535554,-73.9370657
"551 Dekalb Avenue , Brooklyn,  New York ","551 Dekalb Avenue , Brooklyn,  New York ",40.6911334,-73.9546954
"551 East 12 St , Manhattan,  New York ",551 East 12 St   Florida ,25.8332075,-80.2708208
"551 West 157 Street , Manhattan,  New York ",551 West 157 Street   California ,36.778261,-119.4179324
"551 West 160 Street , Manhattan,  New York ","551 West 160 Street , Manhattan,  New York ",40.8358553,-73.9427558
"557 West 140 Street , Manhattan,  New York ","557 West 140 Street , Manhattan,  New York ",40.8230712,-73.9517549
"557-63 West 150 Street , Manhattan,  New York ","557-63 West 150 Street , Manhattan,  New York ",40.8294617,-73.9472255
"558-60 West 148 St , Manhattan,  New York ","558-60 West 148 St , Manhattan,  New York ",40.8278677,-73.9484695
"56-60 West 119 Street , Manhattan,  New York ","56-60 West 119 Street , Manhattan,  New York ",40.803235,-73.947155
"560 West 160 Street , Manhattan,  New York ","560 West 160 Street , Manhattan,  New York ",40.8354643,-73.9429688
"562 West 149 Street , Manhattan,  New York ","562 West 149 Street , Manhattan,  New York ",40.8285184,-73.948013
"562 West 186 Street , Manhattan,  New York ","562 West 186 Street , Manhattan,  New York ",40.8520072,-73.9310681
"563 Howard Avenue , Brooklyn,  New York ",563 Howard Avenue   Oregon ,44.0882487,-123.1362144
"565 West 125th Street , Manhattan,  New York ","565 West 125th Street , Manhattan,  New York ",40.8153868,-73.9578051
"566-68 West 159 Street , Manhattan,  New York ","566-68 West 159 Street , Manhattan,  New York ",40.8348573,-73.9432587
"568 West 171 St , Manhattan,  New York ","568 West 171 St , Manhattan,  New York ",40.84267,-73.9381176
"569-71 Sterling Place , Brooklyn,  New York ","569-71 Sterling Place , Brooklyn,  New York ",40.6739965,-73.9592066
"57 Hudson Ave , Brooklyn,  New York ",57 Hudson Ave   New Jersey ,40.93425,-73.9611491
"571-73 Southern Blvd , Bronx,  New York ","571-73 Southern Blvd , Bronx,  New York ",40.8127704,-73.902753
"572 Sterling Place , Brooklyn,  New York ",572 Sterling Place  Ridgewood New Jersey ,40.9918698,-74.1045255
"575 Ocean Avenue , Brooklyn,  New York ",575 Ocean Avenue  Oyster Bay New York ,40.6828206,-73.4671787
"575 Warren Street , Brooklyn,  New York ",575 Warren Street  Boston Massachusetts ,42.3121561,-71.0833433
"578 Ralph Ave , Brooklyn,  New York ","578 Ralph Ave , Brooklyn,  New York ",40.6693841,-73.9227484
"58 West 105 Street , Manhattan,  New York ",58 West 105 Street  Chicago Illinois ,41.7036958,-87.6256732
"580 Morgan Avenue , Brooklyn,  New York ",580 Morgan Avenue  Akron Ohio ,41.0549611,-81.5079996
"582 Morgan Avenue , Brooklyn,  New York ","582 Morgan Avenue , Brooklyn,  New York ",40.7245639,-73.9393434
"585 Nostrand Ave/1197 Dean St , Brooklyn,  New York ","585 Nostrand Ave/1197 Dean St , Brooklyn,  New York ",40.6771962,-73.9496642
"59 Troutman Ave , Brooklyn,  New York ",59 Troutman Ave   Georgia ,32.552867,-83.8843438
"59 West 109 Street , Manhattan,  New York ","59 West 109 Street , Manhattan,  New York ",40.8010127,-73.9606649
"59 West 87 St , Manhattan,  New York ",59 West 87 St  Chicago Illinois ,41.7361608,-87.6264242
"59-61 MSN Ave/371 W 120 St , Manhattan,  New York ","59-61 MSN Ave/371 W 120 St , Manhattan,  New York ",40.808177,-73.9559355
"590 Parkside Avenue , Brooklyn,  New York ","590 Parkside Avenue , Brooklyn,  New York ",40.6558133,-73.9538247
"590 Southern Blvd , Bronx,  New York ","590 Southern Blvd , Bronx,  New York ",40.8125294,-73.9016047
"591 Kosciusko St , Brooklyn,  New York ",591 Kosciusko St  South Lindsey Township Missouri ,38.2472034,-93.380739
"592 West 178 St , Manhattan,  New York ","592 West 178 St , Manhattan,  New York ",40.846889,-73.93472
"595 Franklin Ave , Brooklyn,  New York ",595 Franklin Ave  Hempstead New York ,40.7235654,-73.6330421
"601 West 138 St , Manhattan,  New York ","601 West 138 St , Manhattan,  New York ",40.8223199,-73.9540638
"602 West 132 Street TA, Manhattan,  New York ","602 West 132 Street TA, Manhattan,  New York ",40.8179981,-73.9574276
"602-04 West 140 St , Manhattan,  New York ","602-04 West 140 St , Manhattan,  New York ",40.8233434,-73.9534096
"604 East 17 Street , Brooklyn,  New York ",604 East 17 Street   Arkansas ,33.4392003,-94.0371808
"605 East 169 Street , Bronx,  New York ","605 East 169 Street , Bronx,  New York ",40.8320332,-73.9021955
"607-09 West 136 Street , Manhattan,  New York ","607-09 West 136 Street , Manhattan,  New York ",40.8211953,-73.9551087
"61 West 105 Street , Manhattan,  New York ","61 West 105 Street , Manhattan,  New York ",40.7983611,-73.9626419
"61 West 87 Street , Manhattan,  New York ",61 West 87 Street  Chicago Illinois ,41.7361596,-87.6264841
"610-12 East 5 St , Manhattan,  New York ",610-12 East 5 St   California ,36.778261,-119.4179324
"610-12 West 136 St , Manhattan,  New York ","610-12 West 136 St , Manhattan,  New York ",40.8209327,-73.9554301
"611 West 136 ST , Manhattan,  New York ","611 West 136 ST , Manhattan,  New York ",40.821292,-73.9552464
"611 West 156 Street , Manhattan,  New York ","611 West 156 Street , Manhattan,  New York ",40.8341139,-73.9464017
"614 West 136 St , Manhattan,  New York ","614 West 136 St , Manhattan,  New York ",40.8209588,-73.9556138
"614-20 East 9 Street , Manhattan,  New York ",614-20 East 9 Street   Florida ,27.7336586,-81.5220532
"619 West 143 Street , Manhattan,  New York ","619 West 143 Street , Manhattan,  New York ",40.8258258,-73.952459
"62-64 East 3 St , Manhattan,  New York ",62-64 East 3 St  Jackson Township Ohio ,40.3905471,-84.3798865
"621-23 East 6 St , Manhattan,  New York ",621-23 East 6 St  Center Township Indiana ,40.1837138,-85.3794908
"625 East 6 St , Manhattan,  New York ",625 East 6 St  New Richmond Wisconsin ,45.1172847,-92.5293031
"626 East 9 Street , Manhattan,  New York ",626 East 9 Street   Florida ,27.733632,-81.521543
"628 East 9 Street , Manhattan,  New York ",628 East 9 Street   California ,34.1166366,-117.2720881
"63 Franklin Street , Brooklyn,  New York ",63 Franklin Street  Quincy Massachusetts ,42.2416569,-71.0037402
"63 Morningside Ave , Manhattan,  New York ",63 Morningside Ave  Yonkers New York ,40.9448535,-73.8879534
"63 West 87 St , Manhattan,  New York ",63 West 87 St  Chicago Illinois ,41.7361583,-87.6265441
"631 Academy St , Manhattan,  New York ",631 Academy St   North Carolina ,36.0869404,-80.248323
"631 Park Place , Brooklyn,  New York ",631 Park Place   Colorado ,39.950476,-105.817506
"633 Park Place , Brooklyn,  New York ",633 Park Place  Galloway Township New Jersey ,39.4571617,-74.4653165
"633 Sterling Place , Brooklyn,  New York ","633 Sterling Place , Brooklyn,  New York ",40.6736626,-73.9576558
"638 Sterling Place , Brooklyn,  New York ","638 Sterling Place , Brooklyn,  New York ",40.6732195,-73.9575559
"638 Warren Street , Brooklyn,  New York ",638 Warren Street  Boston Massachusetts ,42.3100308,-71.0826897
"639 East 169 Street , Bronx,  New York ","639 East 169 Street , Bronx,  New York ",40.831707,-73.9009616
"639 President Street , Brooklyn,  New York ","639 President Street , Brooklyn,  New York ",40.6761954,-73.9814927
"645 Barretto Street , Bronx,  New York ","645 Barretto Street , Bronx,  New York ",40.8135164,-73.8893706
"648 Grand Street , Brooklyn,  New York ",648 Grand Street  Jersey City New Jersey ,40.7166938,-74.0638795
"65 EAST TREMONT AVENUE , Bronx,  New York ","65 EAST TREMONT AVENUE , Bronx,  New York ",40.8511283,-73.9078179
"65 Morningside Ave , Manhattan,  New York ","65 Morningside Ave , Manhattan,  New York ",40.808472,-73.955709
"65 North 8 Street , Brooklyn,  New York ",65 North 8 Street  Paterson New Jersey ,40.9280337,-74.1797381
"65 West 87 Street , Manhattan,  New York ",65 West 87 Street  Chicago Illinois ,41.7361571,-87.626604
"65-67 Java Street , Brooklyn,  New York ","65-67 Java Street , Brooklyn,  New York ",40.7314082,-73.9585506
"651 Madison Street , Brooklyn,  New York ","651 Madison Street , Brooklyn,  New York ",40.6871992,-73.9309847
"654 Tenth Avenue , Manhattan,  New York ",654 Tenth Avenue  Brockton Massachusetts ,42.0538334,-71.0001414
"654-58 Grand Street , Brooklyn,  New York ",654-58 Grand Street  Brownhelm Township Ohio ,41.4050239,-82.3234843
"66 Avenue C , Manhattan,  New York ",66 Avenue C  Bayonne New Jersey ,40.6479709,-74.1301666
"660 St Nicholas Ave , Manhattan,  New York ","660 St Nicholas Ave , Manhattan,  New York ",40.8224417,-73.9451923
"664 West 161 Street , Manhattan,  New York ","664 West 161 Street , Manhattan,  New York ",40.8374172,-73.9456195
"664-72 Beck St , Bronx,  New York ","664-72 Beck St , Bronx,  New York ",40.8145592,-73.9016078
"666-68 Broadway , Manhattan,  New York ",666-68 Broadway  Bayonne New Jersey ,40.6697599,-74.1130616
"67 Malcolm X Blvd , Brooklyn,  New York ","67 Malcolm X Blvd , Brooklyn,  New York ",40.6917937,-73.9305859
"67 West 87 Street , Manhattan,  New York ",67 West 87 Street  Chicago Illinois ,41.7361558,-87.6266639
"67-69 St Nicholas Ave , Manhattan,  New York ","67-69 St Nicholas Ave , Manhattan,  New York ",40.8012858,-73.9527475
"671 Kelly St , Bronx,  New York ","671 Kelly St , Bronx,  New York ",40.8152328,-73.9023166
"675 COSTER , Bronx,  New York ","675 COSTER , Bronx,  New York ",40.8140897,-73.8875353
"682 Sixth Avenue , Manhattan,  New York ",682 Sixth Avenue   Georgia ,32.1574351,-82.907123
"685 Nostrand Ave , Brooklyn,  New York ","685 Nostrand Ave , Brooklyn,  New York ",40.6738646,-73.949713
"689 Bristol Street , Brooklyn,  New York ","689 Bristol Street , Brooklyn,  New York ",40.6538871,-73.9083609
"690 Union Ave , Bronx,  New York ","690 Union Ave , Bronx,  New York ",40.816198,-73.9038381
"697 Dawson St , Bronx,  New York ","697 Dawson St , Bronx,  New York ",40.816776,-73.9012846
"698 Classon Ave , Brooklyn,  New York ","698 Classon Ave , Brooklyn,  New York ",40.6762175,-73.9597476
"699 Tenth Ave , Manhattan,  New York ",699 Tenth Ave  Brockton Massachusetts ,42.0538334,-71.0001414
"7 East 3 Street , Manhattan,  New York ",7 East 3 Street  Kaw Township Missouri ,39.1098114,-94.582903
"7 Second Ave , Manhattan,  New York ",7 Second Ave  Old Saybrook Connecticut ,41.3218778,-72.3609069
"7 West 92 St , Manhattan,  New York ","7 West 92 St , Manhattan,  New York ",40.7896494,-73.9672625
"70 West 105 St , Manhattan,  New York ","70 West 105 St , Manhattan,  New York ",40.7981515,-73.9628291
"70 West 108 St , Manhattan,  New York ","70 West 108 St , Manhattan,  New York ",40.8001319,-73.9614521
"700 Oakland Place , Bronx,  New York ","700 Oakland Place , Bronx,  New York ",40.847139,-73.889283
"702 East 5th Street , Manhattan,  New York ",702 East 5th Street   Florida ,27.1963552,-80.2418219
"705-7 East 179 Street , Bronx,  New York ","705-7 East 179 Street , Bronx,  New York ",40.8468133,-73.8895234
"71-73 Clifton Place , Brooklyn,  New York ",71-73 Clifton Place  Jersey City New Jersey ,40.7204294,-74.0656529
"713 St Nicholas Avenue , Manhattan,  New York ","713 St Nicholas Avenue , Manhattan,  New York ",40.8245375,-73.9447477
"719 East 6th Street , Manhattan,  New York ",719 East 6th Street  Penn Township Indiana ,41.6569165,-86.1706741
"719 Hancock St , Brooklyn,  New York ",719 Hancock St  Sandusky Ohio ,41.450543,-82.7048612
"72 Clinton St, Manhattan,  New York ",72 Clinton  New Britain Connecticut ,41.6737324,-72.7984736
"72 Morningside Avenue , Manhattan,  New York ",72 Morningside Avenue  Yonkers New York ,40.9454031,-73.8872976
"72 Richardson Street , Brooklyn,  New York ",72 Richardson Street  Lowell Massachusetts ,42.6576626,-71.3060161
"72 West 88 Street , Manhattan,  New York ","72 West 88 Street , Manhattan,  New York ",40.7876275,-73.9710465
"721 Van Siclen Ave , Brooklyn,  New York ","721 Van Siclen Ave , Brooklyn,  New York ",40.6619597,-73.8864286
"724 East 216 St , Bronx,  New York ","724 East 216 St , Bronx,  New York ",40.8807335,-73.8631097
"728 Driggs Ave , Brooklyn,  New York ","728 Driggs Ave , Brooklyn,  New York ",40.7129451,-73.960619
"729 St Nicholas Avenue , Manhattan,  New York ","729 St Nicholas Avenue , Manhattan,  New York ",40.8251055,-73.9443287
"730-4 57th Street , Brooklyn,  New York ",730-4 57th Street   Florida ,27.6648274,-81.5157535
"733 Grand St , Brooklyn,  New York ","733 Grand St , Brooklyn,  New York ",40.7118741,-73.9435003
"74 Fifth Avenue , Brooklyn,  New York ",74 Fifth Avenue  Newburgh New York ,41.5218648,-74.0488999
"74 Richardson Street , Brooklyn,  New York ",74 Richardson Street  Auburn Maine ,44.0857061,-70.2497821
"741 St Nicholas Avenue , Manhattan,  New York ","741 St Nicholas Avenue , Manhattan,  New York ",40.8255749,-73.9439039
"745 EAST 6 STREET, Manhattan,  New York ",745 Homesteaders    ,40.7228071,-73.9773417
"75 Linden St , Brooklyn,  New York ",75 Linden St  Schenectady New York ,42.7981356,-73.9206498
"755 Oakland Place , Bronx,  New York ","755 Oakland Place , Bronx,  New York ",40.8465828,-73.8874793
"757 East 169 Street , Bronx,  New York ","757 East 169 Street , Bronx,  New York ",40.8310613,-73.8998364
"76 Richardson Street , Brooklyn,  New York ",76 Richardson Street  Bath Maine ,43.9069156,-69.8242775
"762 Cauldwell Ave , Bronx,  New York ","762 Cauldwell Ave , Bronx,  New York ",40.8193759,-73.9082421
"762 Tenth Avenue , Manhattan,  New York ",762 Tenth Avenue   Mississippi ,32.3546679,-89.3985283
"765 Garden St , Bronx,  New York ",765 Garden St  Rahway New Jersey ,40.6093351,-74.2981455
"767-73 Eastern Pkwy , Brooklyn,  New York ","767-73 Eastern Pkwy , Brooklyn,  New York ",40.6699345,-73.9429009
"775 Greene Avenue , Brooklyn,  New York ","775 Greene Avenue , Brooklyn,  New York ",40.6902035,-73.9371701
"775 Jennings St , Bronx,  New York ","775 Jennings St , Bronx,  New York ",40.8320889,-73.8969347
"78 South 1 Street , Brooklyn,  New York ",78 South 1 Street   California ,36.778261,-119.4179324
"78-80 East 127 Street , Manhattan,  New York ","78-80 East 127 Street , Manhattan,  New York ",40.806386,-73.938751
"78-88, Brooklyn,  Avenue , Brooklyn,  New York ","78-88, Brooklyn,  Avenue   California ",36.778261,-119.4179324
"783 Hancock St , Brooklyn,  New York ","783 Hancock St , Brooklyn,  New York ",40.6857009,-73.9241691
"783 Jefferson Avenue , Brooklyn,  New York ",783 Jefferson Avenue   California ,33.7491856,-117.1747489
"785 East 181 Street , Bronx,  New York ",785 East 181 Street  Washington Township Indiana ,40.0486341,-86.1445669
"786 Ninth Avenue , Manhattan,  New York ",786 Ninth Avenue   Florida ,27.6648274,-81.5157535
"789 MacDonough Street , Brooklyn,  New York ",789 MacDonough Street  Bedford-Stuyvesant New York ,40.684563,-73.914482
"79 Hamilton Place , Manhattan,  New York ","79 Hamilton Place , Manhattan,  New York ",40.8226569,-73.9510138
"79 Hanson Place , Brooklyn,  New York ","79 Hanson Place , Brooklyn,  New York ",40.6856878,-73.9745926
"795 Putnam Ave , Brooklyn,  New York ","795 Putnam Ave , Brooklyn,  New York ",40.6865024,-73.9295456
"8 West 119th Street , Manhattan,  New York ","8 West 119th Street , Manhattan,  New York ",40.802658,-73.9457017
"80 St Nicholas Ave , Manhattan,  New York ",80 St Nicholas Ave  Worcester Massachusetts ,42.3129083,-71.7835018
"803-5 East 182 Street , Bronx,  New York ","803-5 East 182 Street , Bronx,  New York ",40.848771,-73.8834146
"805 St. Johns Place , Brooklyn,  New York ","805 St. Johns Place , Brooklyn,  New York ",40.6719199,-73.9515848
"810 East 178 St , Bronx,  New York ","810 East 178 St , Bronx,  New York ",40.8443258,-73.8868805
"811 St Nicholas Ave, Manhattan,  New York ",811 St Nicholas    ,40.827873,-73.9428094
"811-27 Fox St , Bronx,  New York ",811-27 Fox St   North Carolina ,35.7595731,-79.0192997
"820-24 St Nicholas Ave , Manhattan,  New York ",820-24 St Nicholas Ave  Dayton Ohio ,39.7483644,-84.1555328
"821 Prospect Place , Brooklyn,  New York ","821 Prospect Place , Brooklyn,  New York ",40.6744818,-73.949162
"823 East 147 Street , Bronx,  New York ","823 East 147 Street , Bronx,  New York ",40.8112126,-73.906152
"829 Adee Avenue , Bronx,  New York ","829 Adee Avenue , Bronx,  New York ",40.8698776,-73.8621594
"829 Southern Blvd , Bronx,  New York ","829 Southern Blvd , Bronx,  New York ",40.8173741,-73.8955939
"83 Clay Street , Brooklyn,  New York ","83 Clay Street , Brooklyn,  New York ",40.7368212,-73.954436
"83 Freeman St , Brooklyn,  New York ",83 Freeman St   Massachusetts ,41.9729764,-71.2032324
"83 Hamilton Place , Manhattan,  New York ","83 Hamilton Place , Manhattan,  New York ",40.822733,-73.950734
"831 Fox Street , Bronx,  New York ","831 Fox Street , Bronx,  New York ",40.8176547,-73.896506
"834 Riverside Drive , Manhattan,  New York ",834 Riverside Drive   Florida ,26.269839,-80.2354459
"838 Park Place , Brooklyn,  New York ","838 Park Place , Brooklyn,  New York ",40.6731658,-73.9498742
"840-50 St. Marks Avenue , Brooklyn,  New York ","840-50 St. Marks Avenue , Brooklyn,  New York ",40.674717,-73.9448446
"842 Park Place , Brooklyn,  New York ",842 Park Place   Florida ,27.6648274,-81.5157535
"848 Park Place , Brooklyn,  New York ","848 Park Place , Brooklyn,  New York ",40.673148,-73.94956
"849 St Nicholas Ave , Manhattan,  New York ","849 St Nicholas Ave , Manhattan,  New York ",40.8291923,-73.9422614
"850 Southern Blvd , Bronx,  New York ","850 Southern Blvd , Bronx,  New York ",40.8174131,-73.8946768
"854 Intervale Avenue , Bronx,  New York ","854 Intervale Avenue , Bronx,  New York ",40.8180858,-73.8953963
"856 Nostrand Ave , Brooklyn,  New York ","856 Nostrand Ave , Brooklyn,  New York ",40.668708,-73.9508965
"863 Grand Street , Brooklyn,  New York ","863 Grand Street , Brooklyn,  New York ",40.7124743,-73.9393729
"87 Stockholm St , Brooklyn,  New York ","87 Stockholm St , Brooklyn,  New York ",40.6972816,-73.9253092
"870 Riverside Drive , Manhattan,  New York ",870 Riverside Drive  Union New York ,42.1165344,-75.9692291
"874 Manida St , Bronx,  New York ","874 Manida St , Bronx,  New York ",40.8186055,-73.8899936
"875 Longfellow Ave , Bronx,  New York ","875 Longfellow Ave , Bronx,  New York ",40.8193037,-73.885949
"88 16th Street , Brooklyn,  New York ",88 16th Street  Holland Michigan ,42.7828037,-86.1112778
"883 East 165 St , Bronx,  New York ","883 East 165 St , Bronx,  New York ",40.8240112,-73.8983088
"89 Lefferts Place , Brooklyn,  New York ","89 Lefferts Place , Brooklyn,  New York ",40.6813883,-73.9597628
890 Flushing Ave  Queens New York ,890 Flushing Ave  Queens New York ,40.7019818,-73.9360308
"897-903 Empire Boulevard , Brooklyn,  New York ",897-903 Empire Boulevard  Eastern Parkway New York ,40.66379,-73.932351
"9 Argyle Road , Brooklyn,  New York ",9 Argyle Road   Delaware ,39.659702,-75.7389452
"90-102 Hamilton Place , Manhattan,  New York ","90-102 Hamilton Place , Manhattan,  New York ",40.8233072,-73.9504701
"902 Eagle Ave , Bronx,  New York ",902 Eagle Ave   Texas ,30.0044567,-94.2683353
"906 Eagle Ave , Bronx,  New York ",906 Eagle Ave   Texas ,30.0044567,-94.2683353
"906 Simpson Street , Bronx,  New York ","906 Simpson Street , Bronx,  New York ",40.819982,-73.893416
"916 East 223 Street , Bronx,  New York ","916 East 223 Street , Bronx,  New York ",40.8841598,-73.8548968
"92 St Nicholas Avenue , Manhattan,  New York ","92 St Nicholas Avenue , Manhattan,  New York ",40.8020037,-73.9522304
"924 Hart Street , Brooklyn,  New York ",924 Hart Street   Florida ,27.9831014,-81.6110877
"927 Columbus Ave , Manhattan,  New York ","927 Columbus Ave , Manhattan,  New York ",40.798784,-73.962908
"931 Columbus Ave , Manhattan,  New York ",931 Columbus Ave   Virginia ,37.640714,-77.454798
"938 Saint Nicholas Ave, Manhattan,  New York ",936-938 Cliffcrest    ,43.7251955,-79.2324113
"94 Hester St , Manhattan,  New York ",94 Hester St   South Carolina ,33.5172329,-81.8490801
"941 Rogers Place , Bronx,  New York ","941 Rogers Place , Bronx,  New York ",40.8222887,-73.8980366
"942 Columbus Avenue , Manhattan,  New York ","942 Columbus Avenue , Manhattan,  New York ",40.7995692,-73.9629716
"943 Amsterdam Ave , Manhattan,  New York ","943 Amsterdam Ave , Manhattan,  New York ",40.800539,-73.9652768
"943-947 Teller Ave , Bronx,  New York ","943-947 Teller Ave , Bronx,  New York ",40.8264084,-73.915695
"95 South 10th St , Brooklyn,  New York ",95 South 10th St   Florida ,30.2861235,-81.3991276
"951, Manhattan,  Ave , Brooklyn,  New York ","951, Manhattan,  Ave , Brooklyn,  New York ",40.7317778,-73.9547896
"952 St Marks Avenue , Brooklyn,  New York ","952 St Marks Avenue , Brooklyn,  New York ",40.6744089,-73.9403667
"962 East 172 St , Bronx,  New York ","962 East 172 St , Bronx,  New York ",40.8332363,-73.8877885
"962-68 Anderson Avenue , Bronx,  New York ","962-68 Anderson Avenue , Bronx,  New York ",40.8313776,-73.9275548
"97 Eagle Street , Brooklyn,  New York ","97 Eagle Street , Brooklyn,  New York ",40.7351367,-73.9571279
"97-99 South 8 St , Brooklyn,  New York ",97-99 South 8 St  Newark New Jersey ,40.7476133,-74.1952687
"971 Kelly St , Bronx,  New York ","971 Kelly St , Bronx,  New York ",40.822001,-73.8961387
"972 Anderson Ave , Bronx,  New York ","972 Anderson Ave , Bronx,  New York ",40.8317102,-73.9272957
"975 Summit Ave , Bronx,  New York ","975 Summit Ave , Bronx,  New York ",40.8324371,-73.9309643
"975 Union Avenue , Bronx,  New York ",975 Union Avenue  Riverhead New York ,40.95003,-72.6418419
"976 Simpson St , Bronx,  New York ",976 Simpson St    ,40.8221099,-73.892616
"98-100 Avenue C , Manhattan,  New York ",98-100 Avenue C    ,40.723738,-73.978782
"980 Putnam Avenue , Brooklyn,  New York ",980 Putnam Avenue    ,40.6869596,-73.9229785
"980 Simpson St , Bronx,  New York ",980 Simpson St    ,40.8222198,-73.8926199
"982 Putnam Ave , Brooklyn,  New York ",982 Putnam Ave    ,40.6869822,-73.9228765
"983 Amsterdam Ave , Manhattan,  New York ",983 Amsterdam Ave    ,40.8018115,-73.9643842
"984 Simpson St , Bronx,  New York ",984 Simpson St    ,40.8223303,-73.8926262
"986 Leggett Avenue , Bronx,  New York ",986 Leggett Avenue    ,40.8144703,-73.9001802
"986 Putnam Ave , Brooklyn,  New York ",986 Putnam Ave    ,40.6869918,-73.9227084
"987 Amsterdam Ave , Manhattan,  New York ",987 Amsterdam Ave    ,40.8019108,-73.9642609
"988-90 Hopkinson Avenue , Brooklyn,  New York ",988-90 Hopkinson Avenue    ,40.6561158,-73.9104235
"989 Amsterdam Ave , Manhattan,  New York ",989 Amsterdam Ave    ,40.8019727,-73.9642223
"992 Putnam Ave , Brooklyn,  New York ",992 Putnam Ave    ,40.6870115,-73.92246
"993 Amsterdam Ave , Manhattan,  New York ",993 Amsterdam Ave    ,40.8020981,-73.9641489
"237 Eldridge Street 
, Manhattan,  New York ",A.D.I.L.    ,40.7225565,-73.9899587
"606 East 11th Street, Manhattan,  New York ",AHONA    ,40.7271132,-73.979078
"309 East 4 St , Manhattan,  New York ",ALL PEOPLES HMSTD OF 309    ,40.7221732,-73.9796504
"11 West 107 Street , Manhattan,  New York ",Alborada Group    ,40.7992123,-73.9601618
"646 Ninth Avenue, Manhattan,  New York ",Amethyst West    ,40.7604648,-73.9907818
"500 West 157 St, Manhattan,  New York ",Amsterdam Gates    ,52.3675734,4.9041389
"936 Kelly Street, Bronx,  New York ",Banana Kelly    ,40.8229845,-73.8997993
"838 Beck St , Bronx,  New York ",Beck St Court    ,40.8179039,-73.8967956
"92 East 3 Street , Manhattan,  New York ",Bullet Space    ,40.7212283,-73.9796464
"219 E 4 ST, Manhattan,  New York ",COQUI REALTY   ,40.7237881,-73.9832644
"110-16 , Brooklyn,  New York ",Cambridge Heights    ,38.635397,-90.1896791
"508-512 West 162 St , Manhattan,  New York ",Casa Libre    ,34.0677165,-118.2816694
"393 East 10th Street, Manhattan,  New York ",Casi Alba Homesteaders    ,40.7261223,-73.9778249
"54-56 East 129 St , Manhattan,  New York ",Change    ,40.807792,-73.938218
"655 Riverside Drive , Manhattan,  New York ",Cheops    ,40.8255972,-73.9529963
"79 Decatur St, Brooklyn,  New York ",Clermont    ,28.5494447,-81.7728543
"695 9th Avenue, Manhattan, , NY 10036
",Clinton Corner    ,40.7621919,-73.9902363
"920 Metcalf Ave, Bronx, , NY 10473
",Cloverleaf Towers    ,40.3428108,-79.9651721
"681 E 181 ST, Bronx, , NY 10457
",Crotona Ave.    ,40.8462339,-73.8904453
"16-18 Second Ave, Manhattan, , NY 10012
",Cube Building    ,40.7240751,-73.990757
"678 St. Nicholas Avenue #26, Manhattan, , NY 10030
",Desperation    ,40.8234673,-73.9448264
"475 Prospect Place, Brooklyn, , NY 11238
",Destiny Co-op    ,40.676196,-73.960578
"304 St Johns Place, Brooklyn, , NY 11238
",Destiny Coop Urban Hmstd Assoc   ,40.674012,-73.9674564
"151-55 West 106 St, Manhattan, , NY 10025
",Duke Ellington Trio    ,40.8002612,-73.9648347
"527-29 East 12 St, Manhattan, , NY 10009
",East 12th Street Tenants    ,40.728723,-73.9798859
"52 East 1 St, Manhattan, , NY 10003
",East 1st Street Homesteaders    ,40.7239147,-73.989467
"205-07 East 124 St, Manhattan, , NY 10035
",East Drive    ,40.802893,-73.9357115
"420 East 119 St, Manhattan, , NY 10035
",El Barrio Tenants in Action    ,40.7973785,-73.9332301
"1010 FAILE STREET
Bronx, NY 10459",FAILE STREET    ,40.8163977,-73.8869822
"188 East 3rd Street, Manhattan, , NY 10009
",FLOW    ,40.7228016,-73.9837743
"4206-24 Fifth Ave, Brooklyn, , NY 11232
",FUERZA LATINA    ,40.6495701,-74.0060046
"429 Bergen Street, Brooklyn, , NY 11217
",Fifth and Bergen    ,40.6814586,-73.9766913
"610 West 140 St, Manhattan, , NY 10031
",First Ludford-Lourdes    ,43.091463,-0.045726
"641 East 11 Street, Manhattan, , NY 10009
",Florisol    ,-0.1996657,-78.4853317
"212 Forsyth St, Manhattan, , NY 10002
",Forsyth Street Tenants    ,40.7187337,-73.9926578
"847 Fox Street, Bronx, , NY 10459
",Fox Street Residence    ,40.8179443,-73.8962061
"620 East 170 Street, Bronx, , NY 10456
",Franklin Kite    ,40.8340062,-73.8999281
"100 Newel Street, Brooklyn, , NY 11222
",Freedom    ,40.7258207,-73.947737
"208 West 119 St, Manhattan, , NY 10026",Garden Court    ,40.8055008,-73.9521589
"527 East 5 St, Manhattan, , NY 10009",Greenhouse Artists Residence    ,40.7244765,-73.983031
"800 Riverside Drive, Manhattan, , NY 10032",Grinnell    ,41.7434092,-92.7232456
"1608 Amsterdam Avenue, Manhattan, New York",Hamilton Heights Community    ,40.8252793,-73.9476139
"991 Amsterdam Ave, Manhattan, , NY 10025",Harambee Mutual    ,40.802032,-73.964177
"519 East 11 St, Manhattan, , NY 10009",Heartstone    ,40.72819,-73.9807418
"1966 Newbold Ave, Bronx, , NY 10472",Hugh Grant Gardens    ,40.8321114,-73.8595466
"1285 Dean St, Brooklyn, , NY 11216",IMANI    ,40.6769223,-73.946419
"106-03 37 Ave Queens, NY 11368",J.O.R.    ,6.2330208,-75.5913551
"763 Jennings St, Bronx, , NY 10459",Jennings Terrace Gardens    ,41.7515935,-88.3176581
"941 Jerome Ave, Bronx, , NY 10452",Jerome Ave Tenants    ,40.865424,-73.8989843
"694 Classon Ave, Brooklyn, , NY 11238",Joint Approach    ,40.676284,-73.959741
"239 East 2 Street, Manhattan, , NY 10009",Joseph Cardona Memorial    ,40.7213669,-73.9820456
"278 East 7 St, Manhattan, , NY 10009",LES 278    ,40.7231803,-73.9770019
"339-41 Bedford Ave, Brooklyn, , NY 11211",La Borinquena    ,40.7121993,-73.9625371
"312 Lincoln Road, Brooklyn, , NY 11225",La Espaniola    ,40.6612452,-73.952352
"653 East 5 St, Manhattan, , NY 10009",La Fortaleza    ,40.7230671,-73.9799051
"86 West 119 Street, Manhattan, , NY 10026",Lenox Court    ,40.8037129,-73.9479522
"320 East 4 St, Manhattan, , NY 10009",Limited Equity    ,40.7218238,-73.9794785
"112 East 102 St, Manhattan, , NY 10029",Los Hijos del Barrio    ,40.7899166,-73.9491301
"173 East 111 St, Manhattan, , NY 10029",Machito Blvd.  aka 173 E. 111 St.    ,40.7952495,-73.9429705
"186 East 111 St, Manhattan, , NY 10029",Machito Square  aka 186 E. 111 St.    ,40.7947765,-73.9421304
"262 West 154 St, Manhattan, , NY 10039",Macombs Manor    ,42.5313976,-82.9173374
"2090 Madison Ave, Manhattan, , NY 10037",Madison Ave    ,40.7421633,-73.987047
"1901 Madison Ave, Manhattan, , NY 10035",Maple Court    ,47.7839181,-122.3079456
"1919 Madison Ave, Manhattan, , NY 10035",Maple Plaza    ,40.8045686,-73.9410797
"503 West 174 St, Manhattan, , NY 10033",Maria De La Cruz    ,40.8439915,-73.9346424
"742 East 6th Street, Manhattan, , NY 10009",Mascot Flats    ,40.7226529,-73.9777763
"985 Amsterdam Ave, Manhattan, , NY 10025",Merengue Gaucho  aka 985 Amsterdam Avenue    ,40.8018509,-73.9643067
"500 Southern Boulevard, Bronx, , NY 10455",Mott Haven Victory    ,40.8091068,-73.9228881
"2185 Pacific Street, Brooklyn, , NY 11233",NY Pacific St    ,40.6777804,-73.9519973
"2600 Briggs Ave, Bronx, , NY 10458",New Briggs Ave    ,40.8683745,-73.8898125
"408 West 25 St, Manhattan, , NY 10001",New Era    ,40.7478579,-74.0011292
"946-50 Hoe Ave, Bronx, , NY 10459",New Hoe Avenue    ,33.9527182,-81.1081795
"1670 Longfellow Ave, Bronx, , NY 10460",Nina Dunn    ,40.8348834,-73.8847539
"398 Oliver Place, Bronx, , NY 10458",OLIVER GARDENS    ,40.866419,-73.885524
"948 Columbus Ave, Manhattan, , NY 10025",Occupants    ,40.7997473,-73.9628437
"3215 Olinville Ave, Bronx, , NY 10467",Olinville Manor    ,40.8720332,-73.8684035
"2245 Hughes Avenue, Bronx, , NY 10457",P R Association    ,40.8518288,-73.8887524
"537 West 156 St, Manhattan, , NY 10032",Palace United    ,40.8330189,-73.9438259
"139 Norfolk St, Manhattan, , NY 10002",Palm Beach    ,26.7056206,-80.0364297
"544 West 147 St, Manhattan, , NY 10031",Palmares    ,40.8272965,-73.948986
"1351 Park Ave, Manhattan, , NY 10029",Park Avenue Hall    ,40.7899069,-73.9495523
"42 Patchen Ave, Brooklyn, , NY 11221",Patchen   ,40.6908403,-73.9277933
"851 Fox St, Bronx, , NY 10459",Phoenix Homesteaders    ,33.4832797,-112.0230451
"1815 Prospect Avenue, Bronx, , NY 10457",Plaza Off the Park    ,40.8420878,-73.8915071
"401 East 145 St, Bronx, , NY 10454",Pueblo en Marcha    ,40.812966,-73.9190033
"515 East 13 St, Manhattan, , NY 10009",RIVPIN    ,40.729579,-73.9799499
"616 West 137 St, Manhattan, , NY 10031",Residencia Esperanza    ,40.8217231,-73.9554416
"186 East 104 St, Manhattan, , NY 10029",Residents Association 186 East 104 Street    ,40.7903575,-73.94616
"508 West 135th St, Manhattan, , NY 10031",River View    ,40.8191056,-73.9533835
"584 Rogers Ave, Brooklyn, , NY 11225
",Rogers Ave Homesteaders    ,40.6574557,-73.9535015
"508 East 6 St, Manhattan, , NY 10009",SCLERA    ,40.7250752,-73.9834206
"827 Tenth Ave, Manhattan, , NY 10019",SITE FIVE    ,40.7677564,-73.9898673
"164 Bleecker St, Brooklyn, , NY 11221",Safe Haven    ,40.6964714,-73.9196198
"601 West 136 St, Manhattan, , NY 10031",Saxonia 601 West 136 St    ,40.8210248,-73.9549362
"2360 Eighth Ave, Manhattan, , NY 10027",Second Canaan    ,40.8111062,-73.9501722
"733 East 9th Street, Manhattan, , NY 10009",Serenity    ,40.7248875,-73.9764902
"41 Convent Avenue, Manhattan, , NY 10027",St. Agnes Apartments    ,38.6004703,-90.2187129
"635 East 11th Street #12, Manhattan, , NY 10009",St. Romero    ,40.726979,-73.977716
"320-22 57th St, Brooklyn, , NY 11220",Sunbay    ,40.6434294,-74.0183249
"759 40th Street, Brooklyn, , NY 11232",Sunboro    ,40.6473478,-73.9985898
"11 Ten Eyck St, Brooklyn, , NY 11206
",Ten Eyck Houses    ,40.7097547,-73.9503352
"368 East 8th Street, Manhattan, , NY 10009",Tenants of 368 East 8th Street    ,40.7242095,-73.9776639
"404 East 10 St, Manhattan, , NY 10009",Tenants of 404 East 10 St    ,40.7255026,-73.9771705
"414 East 10 St, Manhattan, , NY 10009",Tenants of 414 East 10th Street    ,40.7254128,-73.9768519
"308 Gates Ave, Brooklyn, , NY 11216",The Bedford Gates Ave    ,40.6885415,-73.930459
"64 Havemeyer St, Brooklyn, , NY 11211",The Convent    ,40.7147328,-73.9549021
"326 West 43 St, Manhattan, , NY 10036",The Crossroads    ,40.7583295,-73.9905765
"336 East 4th Street, Manhattan, , NY 10009",The Executive    ,40.7214655,-73.9789447
"2170 Second Ave, Manhattan, , NY 10029",The Jeffersonville    ,38.2775702,-85.7371847
"351 West 114 St, Manhattan, , NY 10026",The Monterey    ,36.6002378,-121.8946761
"456 West 50 St, Manhattan, , NY 10019",The New 456 West 50 St    ,40.764378,-73.9914474
"115 East 101 Street, Manhattan, , NY 10029",The New Forever Green    ,40.7896369,-73.9495523
"921-41 Tiffany St, Bronx, , NY 10459
",Tiffany Apartments    ,40.820456,-73.895238
"2015 Southern Blvd, Bronx, , NY 10460",Trinity 3 in 1    ,40.8443345,-73.8857006
"550 West 153 St, Manhattan, , NY 10031",Trinity Studio    ,40.8312615,-73.9465031
"280 Dean St, Brooklyn, , NY 11217",UNIDAD Y PROGRESO    ,26.0852961,-98.2725819
"517 West 151 St, Manhattan, , NY 10031",URBAN OASIS    ,40.8295651,-73.9455572
"21-23 Avenue C, Manhattan, , NY 10009",Umbrella House    ,40.7213214,-73.981091
"125 West 111th St., Manhattan, , NY 10026",Unity Court    ,39.230977,-81.5439454
"400 East 161 Street, Bronx, , NY 10451",Urban Reservation    ,40.8240089,-73.9137435
"120 West 123 St, Manhattan, , NY 10027",Victory Renaissance    ,40.8068566,-73.9475585
"715 St Nicholas Ave, Manhattan, , NY 10031",W.B.Dubois    ,40.8245829,-73.944719
"552-54 West 141 St, Manhattan, , NY 10031",West 141 Street Tenants    ,40.8206203,-73.9445375
"535 West 156 St, Manhattan, , NY 10032",West 156 Street    ,40.8329714,-73.9437022
"West 50 St, Manhattan, , NY 10019",West 50 Street    ,40.7621063,-73.9856974
"1252 West Farms Road, Bronx, , NY 10459",West Farms Freeman    ,40.828862,-73.887793
"1 West 126th Street, Manhattan, , NY",West Side Owners Company   ,40.8073916,-73.9420052
"512 West 135 St, Manhattan, , NY 10031",Westside 135 Street    ,40.819224,-73.9536688
"405 Williams Ave, Brooklyn, , NY 11207",Williams and Georgia Towers    ,40.6660342,-73.897999
"475 17th Street, Brooklyn, , NY 11215
",Windsor Terrace Co-ops    ,40.6539346,-73.9756567
"1794-96 Amsterdam Avenue, Manhattan, New York","aka 1794-96 Amsterdam Ave
",40.8278089,-73.9461501